{"version": 0.6, "generator": "Overpass API 0.7.62.5 1bd436f1", "osm3s": {"timestamp_osm_base": "2025-05-11T01:54:44Z", "copyright": "The data included in this document is from www.openstreetmap.org. The data is made available under ODbL."}, "elements": [{"type": "node", "id": 1459091693, "lat": 40.6460315, "lon": -0.1993877, "tags": {"addr:city": "Forcall", "addr:housenumber": "10", "addr:postcode": "12310", "addr:street": "Pla\u00e7a Major", "alt_name": "Farmacia Forcall", "amenity": "pharmacy", "healthcare": "pharmacy", "name": "Farmacia Mesas", "operator": "Ana Mar\u00eda Mesas Teruel", "phone": "+34 964171076"}}, {"type": "node", "id": 1507499865, "lat": 40.6454851, "lon": -0.2016439, "tags": {"amenity": "clinic", "healthcare": "clinic"}}, {"type": "node", "id": 4352697892, "lat": 40.6214291, "lon": -0.0992732, "tags": {"amenity": "clinic", "healthcare": "clinic", "name": "Centre de Salut de Morella", "name:ca": "Centre de Salut de Morella", "name:es": "Centro de Salud de Morella", "wikidata": "Q56707052"}}, {"type": "node", "id": 6983029848, "lat": 40.430994, "lon": -0.2537077, "tags": {"addr:city": "Vilafranca / Villafranca del Cid", "addr:housenumber": "1", "addr:postcode": "12150", "addr:street": "Carrer Portell", "amenity": "clinic", "healthcare": "clinic", "name": "Centre de Salut de Vilafranca", "wheelchair": "yes"}}, {"type": "node", "id": 7296621597, "lat": 40.4721335, "lon": 0.0226667, "tags": {"addr:city": "Cat\u00ed", "addr:housenumber": "35", "addr:postcode": "12513", "addr:street": "Carrer Llarguer", "amenity": "pharmacy", "dispensing": "yes", "healthcare": "pharmacy", "name": "Farm\u00e0cia Pere Puig", "operator": "Pere Puig Pitarch", "phone": "+34 964409090"}}, {"type": "node", "id": 7398797463, "lat": 40.5195138, "lon": 0.1582057, "tags": {"addr:city": "Xert", "addr:housenumber": "46", "addr:postcode": "12360", "addr:street": "Carrer de Val\u00e8ncia", "amenity": "pharmacy", "dispensing": "yes", "healthcare": "pharmacy", "name": "Farmacia Ferrando", "operator": "Mar\u00eda Dolores Ferrando Esteve", "phone": "+34 964490082"}}, {"type": "node", "id": 7398937525, "lat": 40.6561972, "lon": 0.1568289, "tags": {"addr:city": "La Pobla de Benifass\u00e0", "addr:housenumber": "35", "addr:postcode": "12599", "addr:street": "Carrer Major", "amenity": "pharmacy", "dispensing": "yes", "healthcare": "pharmacy", "name": "Farmacia Ballester", "operator": "M\u00f3nica Ballester Solaz", "phone": "+34 630556049"}}, {"type": "node", "id": 7399118051, "lat": 40.4648337, "lon": 0.1793137, "tags": {"addr:city": "Sant Mateu", "addr:housenumber": "26", "addr:postcode": "12170", "addr:street": "Carrer de Val\u00e8ncia", "amenity": "pharmacy", "contact:whatsapp": "+34 627967105", "dispensing": "yes", "facebook": "https://www.facebook.com/FarmaciaFerreres/", "healthcare": "pharmacy", "name": "Farmacia Ferreres", "operator": "Mar\u00eda \u00c1ngeles Ferreres Gimeno", "phone": "+34 964297813"}}, {"type": "node", "id": 7399288128, "lat": 40.4243923, "lon": 0.0787917, "tags": {"addr:city": "T\u00edrig", "addr:housenumber": "39", "addr:postcode": "12179", "addr:street": "Carrer Sant Miquel", "alt_name": "Farmacia Tirig", "amenity": "pharmacy", "dispensing": "yes", "healthcare": "pharmacy", "name": "Farmacia Abad", "operator": "Cristina Abad Garc\u00eda", "phone": "+34 964418677"}}, {"type": "node", "id": 7417263866, "lat": 40.5842865, "lon": -0.2173747, "tags": {"addr:city": "Cinctorres", "addr:housenumber": "14", "addr:postcode": "12318", "addr:street": "Carrer Els Ports", "amenity": "pharmacy", "brand": "F+", "dispensing": "yes", "email": "farmaciagarriga@gmail.com", "healthcare": "pharmacy", "name": "Farmacia Garriga", "operator": "Pedro Garriga Cabo", "phone": "+34 964181014", "website": "https://www.farmaciagarrigafmas.com/"}}, {"type": "node", "id": 7417351495, "lat": 40.6159957, "lon": -0.2786284, "tags": {"addr:city": "la Mata", "addr:postcode": "12312", "addr:street": "Carrer de la Carretera", "alt_name": "Farmacia La Mata", "amenity": "pharmacy", "dispensing": "yes", "healthcare": "pharmacy", "name": "Farmacia Mart\u00ed", "operator": "Encarnaci\u00f3n Mart\u00ed Ulldemolins", "phone": "+34 964180137"}}, {"type": "node", "id": 7417416763, "lat": 40.5320067, "lon": -0.2630109, "tags": {"addr:city": "Portell de Morella", "addr:housenumber": "1", "addr:postcode": "12318", "addr:street": "Calle Nueva", "alt_name": "Farmacia Portell", "amenity": "pharmacy", "dispensing": "yes", "healthcare": "pharmacy", "name": "Farmacia Jord\u00e1n", "operator": "Francisco Javier Jord\u00e1n Moros", "phone": "+34 964178788"}}, {"type": "node", "id": 7417438406, "lat": 40.6464482, "lon": -0.2466691, "tags": {"addr:city": "Todolella", "addr:housenumber": "6", "addr:postcode": "12312", "addr:street": "Carrer de l'Arc", "amenity": "pharmacy", "dispensing": "yes", "healthcare": "pharmacy", "name": "Farmaciola Todolella", "phone": "+34 964 18 10 14"}}, {"type": "node", "id": 7417460914, "lat": 40.7286011, "lon": -0.166546, "tags": {"addr:city": "Sorita", "addr:housenumber": "12", "addr:postcode": "12311", "addr:street": "Calle Plaza", "alt_name": "Farmacia Sorita", "amenity": "pharmacy", "dispensing": "yes", "healthcare": "pharmacy", "name": "Farmacia Forcadell", "operator": "Eva Forcadell Ayza", "phone": "+34 964177042"}}, {"type": "node", "id": 7417556335, "lat": 40.6183343, "lon": -0.1008338, "tags": {"addr:city": "Morella", "addr:housenumber": "14", "addr:postcode": "12300", "addr:street": "Carrer d'en Blasco d'Alag\u00f3", "alt_name": "Farmacia Morella", "amenity": "pharmacy", "brand": "F+", "contact:facebook": "https://m.me/morellafarma", "contact:whatsapp": "+34 687762534", "dispensing": "yes", "email": "morellafarma@gmail.com", "facebook": "https://www.facebook.com/morellafarma/", "healthcare": "pharmacy", "name": "Farmacia Digna Ramos", "operator": "Digna Ramos Galindo", "phone": "+34 964160004", "website": "https://www.farmaciamorellafmas.com/"}}, {"type": "node", "id": 8828185017, "lat": 40.4611226, "lon": 0.1790216}, {"type": "node", "id": 12108225931, "lat": 40.4609789, "lon": 0.179107}, {"type": "node", "id": 12108225932, "lat": 40.4609914, "lon": 0.1792488}, {"type": "node", "id": 12108225943, "lat": 40.4613521, "lon": 0.1789868}, {"type": "node", "id": 12108225944, "lat": 40.4613956, "lon": 0.1794813}, {"type": "node", "id": 12108225945, "lat": 40.4610169, "lon": 0.1795388}, {"type": "node", "id": 12108225946, "lat": 40.4609734, "lon": 0.1790443}, {"type": "node", "id": 12453444117, "lat": 40.5011926, "lon": -0.1903278, "tags": {"amenity": "pharmacy", "healthcare": "pharmacy", "mobile": "+34 605 201 707", "opening_hours": "09:30-13:30 Mo-Sa", "operator": "Mar\u00eda Dolores L\u00f3pez Prats", "phone": "+34 964445777"}}, {"type": "way", "id": 1307488648, "nodes": [12108225943, 12108225944, 12108225945, 12108225932, 12108225931, 12108225946, 8828185017, 12108225943], "tags": {"amenity": "clinic", "healthcare": "clinic", "name": "Centre de Salut de Sant Mateu", "operator": "Generalitat Valenciana", "operator:type": "public", "operator:wikidata": "Q2477285"}}]}