{"version": 0.6, "generator": "Overpass API 0.7.62.5 1bd436f1", "osm3s": {"timestamp_osm_base": "2025-05-11T01:54:44Z", "copyright": "The data included in this document is from www.openstreetmap.org. The data is made available under ODbL."}, "elements": [{"type": "node", "id": 387357015, "lat": 40.0545804, "lon": -0.350098, "tags": {"amenity": "pharmacy", "name": "Farmacia Argelita", "operator": "Susana Reig P\u00e9rez"}}, {"type": "node", "id": 416678318, "lat": 39.8787794, "lon": -0.5048554}, {"type": "node", "id": 416678319, "lat": 39.8786919, "lon": -0.5048477}, {"type": "node", "id": 416678320, "lat": 39.8786852, "lon": -0.5050239}, {"type": "node", "id": 416678321, "lat": 39.8787733, "lon": -0.5050321}, {"type": "node", "id": 416678322, "lat": 39.8774622, "lon": -0.5065854, "tags": {"amenity": "pharmacy", "dispensing": "yes"}}, {"type": "node", "id": 662434797, "lat": 39.9108357, "lon": -0.7046498, "tags": {"amenity": "pharmacy", "dispensing": "yes"}}, {"type": "node", "id": 911122050, "lat": 39.8051844, "lon": -0.4111012, "tags": {"amenity": "pharmacy"}}, {"type": "node", "id": 1129740720, "lat": 39.8500135, "lon": -0.5111683, "tags": {"amenity": "clinic", "name": "Centro de Salud de Altura"}}, {"type": "node", "id": 1132776006, "lat": 39.8509729, "lon": -0.5119654, "tags": {"amenity": "pharmacy", "dispensing": "yes"}}, {"type": "node", "id": 1560687855, "lat": 40.0552722, "lon": -0.4619668, "tags": {"amenity": "pharmacy", "dispensing": "yes", "name": "Farmacia de Cirat"}}, {"type": "node", "id": 1781965690, "lat": 39.9007015, "lon": -0.6581913, "tags": {"addr:housenumber": "14", "addr:street": "Rocha Castillo", "amenity": "pharmacy", "dispensing": "yes"}}, {"type": "node", "id": 2195459679, "lat": 39.9210341, "lon": -0.6006454, "tags": {"amenity": "clinic", "name": "Centro de Salud Viver"}}, {"type": "node", "id": 2196395680, "lat": 39.9208968, "lon": -0.5953166, "tags": {"addr:postcode": "12460", "addr:street": "Plaza Mayor", "amenity": "pharmacy", "name": "Farmacia Coret"}}, {"type": "node", "id": 2377285410, "lat": 39.8482269, "lon": -0.4917584, "tags": {"amenity": "hospital", "check_date": "2024-03-23", "name": "Hospital Complementario de Segorbe"}}, {"type": "node", "id": 2783811000, "lat": 39.7693267, "lon": -0.5212348, "tags": {"amenity": "pharmacy", "dispensing": "yes"}}, {"type": "node", "id": 3113129519, "lat": 39.9006515, "lon": -0.3407372, "tags": {"addr:city": "A\u00edn", "addr:housenumber": "3", "addr:postcode": "12222", "addr:street": "Pla\u00e7a  Jos\u00e9 Sorribes Fuster", "amenity": "pharmacy", "dispensing": "yes", "healthcare": "pharmacy", "name": "Farmacia A\u00edn", "operator": "Francisco Javier Sanz Mora i Ana Bel\u00e9n Alos Rovira"}}, {"type": "node", "id": 3120973370, "lat": 39.9143303, "lon": -0.4415061, "tags": {"addr:city": "Algimia de Almonacid", "addr:housenumber": "6", "addr:postcode": "12414", "addr:street": "Calle de la Fuente", "amenity": "pharmacy", "contact:phone": "+34 964139146", "dispensing": "yes", "healthcare": "pharmacy", "name": "Farmacia Joaqu\u00edn Villarroya Peiro"}}, {"type": "node", "id": 3124326665, "lat": 39.9031467, "lon": -0.4565961, "tags": {"amenity": "pharmacy", "dispensing": "yes"}}, {"type": "node", "id": 3125864814, "lat": 39.9375724, "lon": -0.4679101, "tags": {"amenity": "pharmacy", "dispensing": "yes"}}, {"type": "node", "id": 3339830073, "lat": 39.8787115, "lon": -0.505027}, {"type": "node", "id": 5726341786, "lat": 39.8786888, "lon": -0.5049306}, {"type": "node", "id": 5776871489, "lat": 39.9841642, "lon": -0.502621}, {"type": "node", "id": 5776871490, "lat": 39.984101, "lon": -0.50258}, {"type": "node", "id": 5776871491, "lat": 39.9840238, "lon": -0.5027814}, {"type": "node", "id": 5776876464, "lat": 39.9839972, "lon": -0.5026504}, {"type": "node", "id": 5776876465, "lat": 39.9840613, "lon": -0.5026165}, {"type": "node", "id": 5776876475, "lat": 39.9839626, "lon": -0.502687}, {"type": "node", "id": 6425869416, "lat": 40.0583288, "lon": -0.6480033, "tags": {"amenity": "pharmacy", "dispensing": "yes", "healthcare": "pharmacy", "name": "Licenciado Vicente Carratal\u00e1 Vila"}}, {"type": "node", "id": 6899890440, "lat": 39.9840857, "lon": -0.5026014}, {"type": "node", "id": 7295578861, "lat": 39.9161183, "lon": -0.3551438, "tags": {"addr:city": "Alcudia de Veo", "addr:postcode": "12222", "addr:street": "Calle de Santa B\u00e1rbara", "amenity": "pharmacy", "contact:facebook": "https://www.facebook.com/farmaciaalcudiadeveocastellon", "dispensing": "yes", "healthcare": "pharmacy", "name": "Farmacia M\u00f3nica Gozalbo Monfort", "nohousenumber": "yes", "operator": "M\u00f3nica Mar\u00eda Gozalbo Monfort"}}, {"type": "node", "id": 8505068227, "lat": 39.9514713, "lon": -0.3341458, "tags": {"amenity": "pharmacy", "name": "Farmacia Chamarro"}}, {"type": "node", "id": 8602947708, "lat": 40.0681917, "lon": -0.5238695, "tags": {"amenity": "pharmacy", "healthcare": "pharmacy", "name": "Apoteca natura", "opening_hours": "Mo-Sa 09:30-14:00,17;00-20:00; Su 09:30-13:30", "wheelchair": "no"}}, {"type": "node", "id": 8913317744, "lat": 40.0265211, "lon": -0.3564285, "tags": {"amenity": "pharmacy", "dispensing": "yes", "healthcare": "pharmacy"}}, {"type": "node", "id": 9362425102, "lat": 40.0424908, "lon": -0.3659627, "tags": {"amenity": "pharmacy", "dispensing": "yes", "healthcare": "pharmacy"}}, {"type": "node", "id": 10242501324, "lat": 39.9824777, "lon": -0.74666, "tags": {"addr:city": "El Toro", "addr:housenumber": "11", "addr:street": "Calle La Fuente", "amenity": "pharmacy", "healthcare": "pharmacy", "name": "Farmacia Moreno Zorrilla"}}, {"type": "node", "id": 10589754298, "lat": 39.9119513, "lon": -0.5697595, "tags": {"amenity": "pharmacy", "healthcare": "pharmacy", "name": "Farmacia J\u00e9rica"}}, {"type": "node", "id": 11331891542, "lat": 39.849331, "lon": -0.4883015, "tags": {"amenity": "pharmacy"}}, {"type": "node", "id": 11398685087, "lat": 39.9996772, "lon": -0.376274, "tags": {"amenity": "pharmacy", "opening_hours": "Mo-Fr 10:00-13:30,17:00-20:09;Sa 10:00-13:00;Su,PH off", "phone": "+34 639118862"}}, {"type": "node", "id": 11401656433, "lat": 40.0492302, "lon": -0.3977971, "tags": {"amenity": "pharmacy", "name": "Botiqu\u00edn"}}, {"type": "way", "id": 35559344, "nodes": [416678318, 416678319, 5726341786, 416678320, 3339830073, 416678321, 416678318], "tags": {"amenity": "clinic", "building": "yes", "name": "Centro de Salud de Navajas"}}, {"type": "way", "id": 609941640, "nodes": [5776871489, 5776871490, 6899890440, 5776876465, 5776876464, 5776876475, 5776871491, 5776871489], "tags": {"amenity": "pharmacy", "building": "yes", "dispensing": "yes", "healthcare": "pharmacy", "name": "Farmacia Higueras", "opening_hours": "Tu 10:00-14:00; Th 10:00-14:00; Sa 10:00-14:00", "payment:credit_cards": "yes"}}]}