{"version": 0.6, "generator": "Overpass API 0.7.62.5 1bd436f1", "osm3s": {"timestamp_osm_base": "2025-05-11T01:54:44Z", "copyright": "The data included in this document is from www.openstreetmap.org. The data is made available under ODbL."}, "elements": [{"type": "node", "id": 348242922, "lat": 40.3085244, "lon": 0.1178526}, {"type": "node", "id": 419927715, "lat": 40.2766755, "lon": -0.2089732, "tags": {"amenity": "pharmacy", "contact:mobile": "+34 661 815 756", "dispensing": "yes", "healthcare": "pharmacy", "name": "Farmacia Benafigos"}}, {"type": "node", "id": 458829806, "lat": 40.0959952, "lon": 0.1376591}, {"type": "node", "id": 560906736, "lat": 40.2119396, "lon": 0.0278534, "tags": {"amenity": "pharmacy", "dispensing": "yes"}}, {"type": "node", "id": 563215856, "lat": 40.3082508, "lon": 0.1180019}, {"type": "node", "id": 563215858, "lat": 40.30861, "lon": 0.1181222}, {"type": "node", "id": 563215861, "lat": 40.3083364, "lon": 0.1182715}, {"type": "node", "id": 563217241, "lat": 40.3083675, "lon": 0.1186935, "tags": {"amenity": "pharmacy", "dispensing": "yes"}}, {"type": "node", "id": 588390268, "lat": 40.07325, "lon": -0.2115578}, {"type": "node", "id": 588390315, "lat": 40.0753032, "lon": -0.213796, "tags": {"addr:city": "l'Alcora", "addr:housenumber": "1", "addr:postcode": "12110", "addr:street": "Carrer Fosch", "amenity": "pharmacy", "contact:facebook": "https://www.facebook.com/farmaciarosersanz", "contact:phone": "+34 964 360 205", "dispensing": "yes", "name": "Farm\u00e0cia Roser Sanz", "operator": "Roser Sanz Gil"}}, {"type": "node", "id": 588390374, "lat": 40.0731441, "lon": -0.2113366}, {"type": "node", "id": 588390389, "lat": 40.073588, "lon": -0.2112911}, {"type": "node", "id": 588390391, "lat": 40.073358, "lon": -0.2111671}, {"type": "node", "id": 589002589, "lat": 40.076838, "lon": -0.2135875, "tags": {"addr:city": "l'Alcora", "addr:housenumber": "1", "addr:postcode": "12110", "addr:street": "Carrer dels Dolors", "amenity": "pharmacy", "dispensing": "yes", "healthcare": "pharmacy", "name": "Farm\u00e0cia Inmaculada Ripoll\u00e9s", "operator": "Inmaculada Ripoll\u00e9s Latorre"}}, {"type": "node", "id": 693021857, "lat": 40.0928652, "lon": 0.1370983, "tags": {"amenity": "pharmacy", "dispensing": "yes"}}, {"type": "node", "id": 693021866, "lat": 40.0857217, "lon": 0.1417539, "tags": {"amenity": "pharmacy", "dispensing": "yes", "healthcare": "pharmacy"}}, {"type": "node", "id": 693021889, "lat": 40.090983, "lon": 0.1365928, "tags": {"amenity": "pharmacy", "dispensing": "yes"}}, {"type": "node", "id": 693031830, "lat": 40.0948758, "lon": 0.1452175, "tags": {"amenity": "pharmacy", "contact:mobile": "+34 678 717 968", "dispensing": "yes", "healthcare": "pharmacy", "name": "Farmacia La Mar", "phone": "+34 964312404", "website": "https://farmacialamar.es/"}}, {"type": "node", "id": 693042934, "lat": 40.1133707, "lon": 0.1535641, "tags": {"amenity": "pharmacy", "dispensing": "yes"}}, {"type": "node", "id": 698854888, "lat": 40.1556065, "lon": 0.0444124, "tags": {"addr:city": "Cabanes", "addr:housenumber": "1", "addr:postcode": "12180", "addr:street": "Pla\u00e7a Els Hostals", "amenity": "pharmacy", "dispensing": "yes", "healthcare": "pharmacy"}}, {"type": "node", "id": 698854925, "lat": 40.1561764, "lon": 0.044509}, {"type": "node", "id": 698854958, "lat": 40.1561605, "lon": 0.044339}, {"type": "node", "id": 698854993, "lat": 40.1560605, "lon": 0.0443881}, {"type": "node", "id": 698854996, "lat": 40.1523465, "lon": 0.157124}, {"type": "node", "id": 698855065, "lat": 40.1560589, "lon": 0.0443556}, {"type": "node", "id": 698855066, "lat": 40.1560208, "lon": 0.0445302}, {"type": "node", "id": 698855142, "lat": 40.1522484, "lon": 0.1570946}, {"type": "node", "id": 698855146, "lat": 40.1522707, "lon": 0.1569673}, {"type": "node", "id": 698855158, "lat": 40.1523688, "lon": 0.1569967}, {"type": "node", "id": 984347684, "lat": 40.2165325, "lon": -0.1722695, "tags": {"amenity": "pharmacy", "healthcare": "pharmacy", "name": "For\u00e9s Garc\u00eda"}}, {"type": "node", "id": 1562545054, "lat": 40.1201389, "lon": -0.1733253, "tags": {"amenity": "pharmacy", "dispensing": "yes", "name": "Farmacia Alejandra Granjel Fabregat"}}, {"type": "node", "id": 1601575447, "lat": 40.3568852, "lon": -0.0666747, "tags": {"amenity": "pharmacy", "dispensing": "yes"}}, {"type": "node", "id": 4200687789, "lat": 40.1131757, "lon": -0.0525041, "tags": {"amenity": "pharmacy"}}, {"type": "node", "id": 4363749505, "lat": 40.3795983, "lon": -0.1417555, "tags": {"addr:city": "Benasal", "addr:housenumber": "4", "addr:postcode": "12160", "addr:street": "Calle de Valencia", "amenity": "pharmacy", "dispensing": "yes", "drive_through": "no", "email": "rosa.roig@cofcastellon.org", "healthcare": "pharmacy", "name": "Farm\u00e0cia Roig-Ferrer", "name:ca": "Farm\u00e0cia Roig-Ferrer", "opening_hours": "9:30-14:00,17:00-20:00", "operator": "Rosa Roig, Josep Ferrer", "phone": "+34 964431382"}}, {"type": "node", "id": 5354123467, "lat": 40.2694826, "lon": -0.0188486, "tags": {"amenity": "pharmacy", "healthcare": "pharmacy", "opening_hours": "Mo,Fr 09:15-11:15; Mo-Fr 18:00-20:00; Tu,Th,Sa 09:30-13:30", "wheelchair": "yes"}}, {"type": "node", "id": 5405430041, "lat": 40.0958869, "lon": 0.1375814}, {"type": "node", "id": 5405430042, "lat": 40.0959072, "lon": 0.1375331}, {"type": "node", "id": 5405430043, "lat": 40.095824, "lon": 0.1374734}, {"type": "node", "id": 5405430044, "lat": 40.0957312, "lon": 0.1376944}, {"type": "node", "id": 5405430045, "lat": 40.0958762, "lon": 0.1377984}, {"type": "node", "id": 5405430046, "lat": 40.0958947, "lon": 0.1377543}, {"type": "node", "id": 5405430047, "lat": 40.0959412, "lon": 0.1377877}, {"type": "node", "id": 5831887545, "lat": 40.1751488, "lon": -0.0337451, "tags": {"addr:housenumber": "6", "addr:street": "avgda pasillos", "amenity": "pharmacy", "healthcare": "pharmacy", "name": "Vicenta Climent"}}, {"type": "node", "id": 6214287707, "lat": 40.2098179, "lon": 0.0293954}, {"type": "node", "id": 6214287708, "lat": 40.2096768, "lon": 0.0292266}, {"type": "node", "id": 6214287723, "lat": 40.2098825, "lon": 0.0292871, "tags": {"addr:housenumber": "30", "addr:postcode": "12181", "addr:street": "Carrer de la Llibertat", "entrance": "yes"}}, {"type": "node", "id": 6214287746, "lat": 40.2096677, "lon": 0.0292427}, {"type": "node", "id": 6214287754, "lat": 40.2097751, "lon": 0.0290529}, {"type": "node", "id": 6214287784, "lat": 40.2099539, "lon": 0.0291691}, {"type": "node", "id": 6214288086, "lat": 40.2098004, "lon": 0.029008}, {"type": "node", "id": 6214288106, "lat": 40.2098286, "lon": 0.0293765}, {"type": "node", "id": 6873959823, "lat": 40.2450679, "lon": -0.2876181, "tags": {"addr:city": "Xodos / Chodos", "addr:housenumber": "7", "addr:postcode": "12134", "addr:street": "Carrer de les Escoles", "amenity": "pharmacy", "dispensing": "yes", "drive_through": "no", "healthcare": "pharmacy", "name": "Farm\u00e0cia de Xodos", "name:ca": "Farm\u00e0cia de Xodos", "opening_hours": "Mo-Sa 10:30-14:30", "operator": "Ib\u00e1n Asensio Abella", "phone": "+34626048404"}}, {"type": "node", "id": 7295325080, "lat": 40.0722114, "lon": -0.2141773, "tags": {"addr:city": "l'Alcora", "addr:housenumber": "1", "addr:postcode": "12110", "addr:street": "Avinguda les Corts Valencianes", "amenity": "pharmacy", "dispensing": "yes", "healthcare": "pharmacy", "name": "Farm\u00e0cia Doctor Arasa", "operator": "Manuel Arasa Gil", "website": "https://www.farmaciadoctorarasa.com"}}, {"type": "node", "id": 7295325081, "lat": 40.0796376, "lon": -0.2116655, "tags": {"addr:city": "l'Alcora", "addr:housenumber": "1", "addr:postcode": "12110", "addr:street": "Carrer Mol\u00ed Nou", "amenity": "pharmacy", "dispensing": "yes", "healthcare": "pharmacy", "operator": "Crist\u00f3bal Tom\u00e1s Lafont"}}, {"type": "node", "id": 7295373556, "lat": 40.3568194, "lon": 0.026437, "tags": {"addr:city": "Alboc\u00e0sser", "addr:housenumber": "5", "addr:postcode": "12140", "addr:street": "Avinguda Jaume I", "amenity": "pharmacy", "dispensing": "yes", "healthcare": "pharmacy", "operator": "Isabel Prats Calduch"}}, {"type": "node", "id": 7399348885, "lat": 40.4182467, "lon": 0.1736701, "tags": {"addr:city": "la Salzadella", "addr:housenumber": "8", "addr:postcode": "12186", "addr:street": "Carrer La Cort", "amenity": "pharmacy", "contact:facebook": "https://m.me/1755649237779599", "dispensing": "yes", "facebook": "https://www.facebook.com/Farmacia-Paula-Garc%C3%ADa-Mestre-1755649237779599/", "healthcare": "pharmacy", "name": "Farmacia Garcia", "operator": "Paula Garc\u00eda Mestre", "phone": "+34 964419240"}}, {"type": "node", "id": 8097887076, "lat": 40.2929483, "lon": -0.2941803, "tags": {"amenity": "pharmacy", "contact:email": "viman10@hotmail.com", "contact:mobile": "+34 607 636 692", "dispensing": "yes", "healthcare": "pharmacy", "name": "Farmacia Vicente M. Eixer\u00e9s Cherta", "phone": "+34 964 389 139"}}, {"type": "node", "id": 8636825269, "lat": 40.1379188, "lon": -0.2801586, "tags": {"amenity": "clinic", "name": "Centre de Salut de Llucena", "operator": "Generalitat Valenciana", "operator:type": "public", "operator:wikidata": "Q2477285"}}, {"type": "node", "id": 9429723294, "lat": 40.2921115, "lon": -0.0453568, "tags": {"amenity": "pharmacy", "dispensing": "yes", "healthcare": "pharmacy", "name": "Botiqu\u00edn Farmac\u00e9utico Manuel Pesudo Mart\u00ednez", "name:ca": "Botiqu\u00ed Farmac\u00e8utic Manuel Pesudo Mart\u00ednez"}}, {"type": "node", "id": 9992491416, "lat": 40.1559997, "lon": 0.0445017}, {"type": "node", "id": 9992552633, "lat": 40.1559975, "lon": 0.0443884}, {"type": "node", "id": 9992552634, "lat": 40.15599, "lon": 0.044389}, {"type": "node", "id": 9992552635, "lat": 40.1559945, "lon": 0.0444924}, {"type": "node", "id": 9992552637, "lat": 40.1561298, "lon": 0.044344}, {"type": "node", "id": 11017705606, "lat": 40.2149582, "lon": -0.169217}, {"type": "node", "id": 11102751823, "lat": 40.1378636, "lon": -0.281013, "tags": {"amenity": "pharmacy", "healthcare": "pharmacy", "name": "Farmacia Cristina Mar\u00eda Teba Tom\u00e1s", "opening_hours": "Mo-Fr 10:00-14:00,16:30-19:30; Sa 10:00-14:00; Su PH closed", "operator": "Cristina Mar\u00eda Teba Tom\u00e1s"}}, {"type": "node", "id": 11166896161, "lat": 40.1527779, "lon": 0.1581967, "tags": {"amenity": "pharmacy", "healthcare": "pharmacy", "name": "Farmacia Colino LaPlaza Cabanes Botiqu\u00edn", "phone": "+34 964 319 853"}}, {"type": "node", "id": 11232632213, "lat": 40.2633894, "lon": 0.0697645, "tags": {"amenity": "pharmacy", "healthcare": "pharmacy"}}, {"type": "node", "id": 11541197668, "lat": 40.0992018, "lon": 0.1353672, "tags": {"amenity": "clinic", "contact:email": "oropesa@diaverum.com", "healthcare": "dialysis", "healthcare:speciality": "nephrology", "name": "Centro de Di\u00e1lisis Diaverum Oropesa", "phone": "+34 964313387", "website": "https://www.diaverum.es/es/es/clinic-container/oropesa-dialysis-clinic-/"}}, {"type": "node", "id": 11860478237, "lat": 40.0734991, "lon": -0.2110987}, {"type": "node", "id": 11860478238, "lat": 40.0733731, "lon": -0.2111999}, {"type": "node", "id": 11878417172, "lat": 40.1572156, "lon": -0.1635738, "tags": {"amenity": "pharmacy", "healthcare": "pharmacy"}}, {"type": "node", "id": 11947582791, "lat": 40.1563022, "lon": 0.0421958, "tags": {"addr:city": "Cabanes", "addr:housenumber": "6", "addr:postcode": "12180", "addr:street": "Carrer Poncio Torrellas", "amenity": "pharmacy", "healthcare": "pharmacy", "name": "Farm\u00e1cia Mar\u00eda \u00c1ngeles Colino", "phone": "964331338"}}, {"type": "node", "id": 11976242305, "lat": 40.102386, "lon": -0.0013639, "tags": {"addr:housenumber": "96", "addr:street": "Carrer d'Enmig", "amenity": "pharmacy", "healthcare": "pharmacy", "name": "Farm\u00e0cia La Pobla", "opening_hours": "Mo-Fr 08:00-14:00, 17:00-19:00; Sa 08:30-13:30"}}, {"type": "node", "id": 12015702002, "lat": 40.2148975, "lon": -0.1689058}, {"type": "node", "id": 12015702003, "lat": 40.2148633, "lon": -0.1688942}, {"type": "node", "id": 12015702004, "lat": 40.214737, "lon": -0.1689917}, {"type": "node", "id": 12015702005, "lat": 40.2147288, "lon": -0.1690373}, {"type": "node", "id": 12015702006, "lat": 40.2148545, "lon": -0.1693153}, {"type": "node", "id": 12036713498, "lat": 40.2276475, "lon": -0.0778795, "tags": {"amenity": "pharmacy", "healthcare": "pharmacy", "operator": "Manuel Pesudo Mart\u00ednez", "operator:type": "private"}}, {"type": "node", "id": 12081589685, "lat": 40.0909185, "lon": 0.1370402, "tags": {"amenity": "clinic", "healthcare": "clinic", "name": "Cl\u00ednica Oropesa", "phone": "+34 964313130"}}, {"type": "node", "id": 12475584198, "lat": 40.3585713, "lon": 0.0150468, "tags": {"amenity": "clinic", "description": "CENTRO ESPEC\u00cdFICO PARA PERSONAS CON ENFERMEDAD MENTAL CR\u00d3NICA DEL ALBOC\u00c0SSER-CEEM IVASS", "healthcare": "clinic", "name": "CEEM Alboc\u00e0sser", "operator": "Instituto Valenciano de Servicios Sociales IVASS", "website": "https://www.gva.es/es/inicio/atencion_ciudadano/buscadores/departamentos/detalle_departamentos?id_dept=19854"}}, {"type": "node", "id": 12496650574, "lat": 40.4271289, "lon": -0.2581127, "tags": {"amenity": "pharmacy", "name": "Farm\u00e0cia Enrique Tena"}}, {"type": "way", "id": 44326674, "nodes": [348242922, 563215858, 563215861, 563215856, 348242922], "tags": {"amenity": "clinic", "name": "Centro de salud de Cuevas de Vinrom\u00e1"}}, {"type": "way", "id": 46150046, "nodes": [588390374, 588390268, 588390389, 11860478237, 11860478238, 588390391, 588390374], "tags": {"amenity": "clinic", "building": "clinic", "healthcare": "clinic", "name": "Centre de Salut de l'Alcora", "name:ca": "Centre de Salut de l'Alcora", "name:es": "Centro de Salud de l'Alcora", "operator": "Generalitat Valenciana", "operator:type": "public", "operator:wikidata": "Q2477285", "phone": "+34 964739940"}}, {"type": "way", "id": 55606619, "nodes": [698854993, 698855065, 9992552637, 698854958, 698854925, 698855066, 9992491416, 9992552635, 9992552634, 9992552633, 698854993], "tags": {"addr:city": "Cabanes", "addr:housenumber": "11", "addr:postcode": "12180", "addr:street": "Carrer Hospital", "amenity": "clinic", "building": "yes", "healthcare": "clinic", "name": "Centro de Salud de Cabanes"}}, {"type": "way", "id": 55606622, "nodes": [698855158, 698854996, 698855142, 698855146, 698855158], "tags": {"amenity": "clinic", "name": "Centro de Salud de Venta de San Antonio"}}, {"type": "way", "id": 560510280, "nodes": [458829806, 5405430041, 5405430042, 5405430043, 5405430044, 5405430045, 5405430046, 5405430047, 458829806], "tags": {"amenity": "clinic", "building": "yes", "emergency:phone": "+34 964739865", "healthcare": "clinic", "name": "Centre de Salut d'Orpesa", "name:ca": "Centre de Salut d'Orpesa", "name:es": "Centro de Salud de Oropesa del Mar", "operator": "Generalitat Valenciana", "operator:type": "public", "operator:wikidata": "Q2477285", "phone": "+34 964739860"}}, {"type": "way", "id": 663918962, "nodes": [6214287746, 6214287708, 6214287754, 6214288086, 6214287784, 6214287723, 6214288106, 6214287707, 6214287746], "tags": {"addr:housenumber": "30", "addr:postcode": "12181", "addr:street": "Carrer de la Llibertat", "amenity": "clinic", "name": "Centre de Salut de Benlloc", "name:ca": "Centre de Salut de Benlloc", "name:es": "Centro de Salud de Benlloc"}}, {"type": "way", "id": 1296723842, "nodes": [11017705606, 12015702002, 12015702003, 12015702004, 12015702005, 12015702006, 11017705606], "tags": {"amenity": "clinic", "building": "hospital", "healthcare": "clinic", "name": "Centre de Salut d'Atzeneta del Maestrat", "operator": "Generalitat Valenciana", "operator:type": "public", "operator:wikidata": "Q2477285"}}]}