{"version": 0.6, "generator": "Overpass API 0.7.62.5 1bd436f1", "osm3s": {"timestamp_osm_base": "2025-05-11T01:54:44Z", "copyright": "The data included in this document is from www.openstreetmap.org. The data is made available under ODbL."}, "elements": [{"type": "node", "id": 268987031, "lat": 40.0043875, "lon": -0.0728965, "tags": {"amenity": "hospital", "healthcare": "hospital", "name": "Hospital de La Magdalena", "operator": "Generalitat Valenciana", "operator:type": "public", "wikidata": "Q87761691"}}, {"type": "node", "id": 321023294, "lat": 39.9975759, "lon": -0.037088}, {"type": "node", "id": 321023297, "lat": 39.9978008, "lon": -0.0366695}, {"type": "node", "id": 321023299, "lat": 39.9968567, "lon": -0.035783}, {"type": "node", "id": 321023305, "lat": 39.9967547, "lon": -0.0363845}, {"type": "node", "id": 321023315, "lat": 39.9968231, "lon": -0.0357888}, {"type": "node", "id": 366669387, "lat": 40.0512331, "lon": 0.0582029}, {"type": "node", "id": 366669391, "lat": 40.0515134, "lon": 0.0584714}, {"type": "node", "id": 366669396, "lat": 40.0511028, "lon": 0.05903}, {"type": "node", "id": 366669401, "lat": 40.0510537, "lon": 0.0589421}, {"type": "node", "id": 366669410, "lat": 40.0512083, "lon": 0.0582507}, {"type": "node", "id": 392063785, "lat": 40.0020861, "lon": -0.0468372, "tags": {"amenity": "clinic", "healthcare": "clinic", "name": "Centre de Salut San Agust\u00edn", "name:ca": "Centre de Salut San Agust\u00edn", "name:es": "Centro de Salud San Agust\u00edn", "operator": "Generalitat Valenciana", "operator:type": "public", "operator:wikidata": "Q2477285"}}, {"type": "node", "id": 446129994, "lat": 39.8867403, "lon": -0.0904418}, {"type": "node", "id": 446129996, "lat": 39.8870612, "lon": -0.0906877}, {"type": "node", "id": 446129998, "lat": 39.8872097, "lon": -0.0903573}, {"type": "node", "id": 446130000, "lat": 39.8868946, "lon": -0.0901191}, {"type": "node", "id": 446130001, "lat": 39.8867871, "lon": -0.090344}, {"type": "node", "id": 446130004, "lat": 39.8868382, "lon": -0.090237}, {"type": "node", "id": 446130005, "lat": 39.8869981, "lon": -0.0903668}, {"type": "node", "id": 446130007, "lat": 39.8869469, "lon": -0.0904738}, {"type": "node", "id": 495304136, "lat": 39.9255651, "lon": -0.0960633}, {"type": "node", "id": 500928312, "lat": 39.9432673, "lon": -0.1076672}, {"type": "node", "id": 500928314, "lat": 39.9431431, "lon": -0.1071487}, {"type": "node", "id": 500928317, "lat": 39.9430969, "lon": -0.1071675}, {"type": "node", "id": 500928319, "lat": 39.9430834, "lon": -0.1071112}, {"type": "node", "id": 500928321, "lat": 39.943007, "lon": -0.1071424}, {"type": "node", "id": 500928322, "lat": 39.9431447, "lon": -0.1077172}, {"type": "node", "id": 505818546, "lat": 40.0399966, "lon": -0.0741715}, {"type": "node", "id": 505818575, "lat": 40.0400643, "lon": -0.0738653}, {"type": "node", "id": 505818582, "lat": 40.0402848, "lon": -0.0739495}, {"type": "node", "id": 524000109, "lat": 39.9830507, "lon": -0.0451031}, {"type": "node", "id": 524000111, "lat": 39.9851117, "lon": -0.0465434}, {"type": "node", "id": 524000113, "lat": 39.9849192, "lon": -0.0448264}, {"type": "node", "id": 590458062, "lat": 40.0327261, "lon": 0.0464231, "tags": {"amenity": "pharmacy", "dispensing": "yes", "name": "Farmacia Azulmar", "opening_hours": "Mo-Fr 10:00-13:30, 17:00-20:00; Sa 10:00-13:30; Su,PH off", "wheelchair": "yes"}}, {"type": "node", "id": 590458064, "lat": 40.0528637, "lon": 0.0589826, "tags": {"amenity": "pharmacy", "dispensing": "yes", "healthcare": "pharmacy"}}, {"type": "node", "id": 590458068, "lat": 40.0527027, "lon": 0.0612132, "tags": {"amenity": "pharmacy", "dispensing": "yes", "healthcare": "pharmacy"}}, {"type": "node", "id": 590458069, "lat": 40.0543303, "lon": 0.0626376, "tags": {"amenity": "pharmacy", "dispensing": "yes", "healthcare": "pharmacy", "name": "Farmacia Ana Amor\u00f3s", "opening_hours": "Mo-Sa 09:00-21:00; Su,PH off"}}, {"type": "node", "id": 590458070, "lat": 40.0557962, "lon": 0.0651978, "tags": {"addr:city": "Benic\u00e0ssim", "addr:housenumber": "94", "addr:postcode": "12560", "addr:street": "Carrer de Sant Tom\u00e0s", "amenity": "pharmacy", "contact:facebook": "https://www.facebook.com/FarmaciaAlfredoGarciaBeltran", "dispensing": "yes", "healthcare": "pharmacy", "name": "Farmacia Alfredo Garc\u00eda Beltr\u00e1n", "phone": "+34 964 30 48 30", "website": "https://www.farmaciaalfredogarcia.com/", "wheelchair": "yes"}}, {"type": "node", "id": 590458074, "lat": 40.0574894, "lon": 0.079837, "tags": {"amenity": "pharmacy", "dispensing": "yes", "healthcare": "pharmacy", "name": "Farmacia Irene Edo Guimer\u00e1", "phone": "+34 964302403"}}, {"type": "node", "id": 602819662, "lat": 39.9626481, "lon": -0.267892}, {"type": "node", "id": 602819666, "lat": 39.9625926, "lon": -0.2685638}, {"type": "node", "id": 602819667, "lat": 39.9623957, "lon": -0.2683995}, {"type": "node", "id": 602819805, "lat": 39.9628343, "lon": -0.2680469}, {"type": "node", "id": 608583568, "lat": 39.9310375, "lon": -0.103707}, {"type": "node", "id": 660531996, "lat": 39.9839728, "lon": -0.0449965}, {"type": "node", "id": 660531997, "lat": 39.9839666, "lon": -0.0449385}, {"type": "node", "id": 660531999, "lat": 39.9849684, "lon": -0.045183}, {"type": "node", "id": 660532000, "lat": 39.9849571, "lon": -0.045185}, {"type": "node", "id": 986097942, "lat": 39.9743746, "lon": -0.0492878}, {"type": "node", "id": 986097959, "lat": 39.9743084, "lon": -0.0488007}, {"type": "node", "id": 986097963, "lat": 39.9742067, "lon": -0.0486769}, {"type": "node", "id": 986097975, "lat": 39.9740595, "lon": -0.0488766}, {"type": "node", "id": 986097979, "lat": 39.9744696, "lon": -0.0491764}, {"type": "node", "id": 1151150707, "lat": 39.9745052, "lon": -0.0490231}, {"type": "node", "id": 1151151192, "lat": 39.9743963, "lon": -0.0486857}, {"type": "node", "id": 1151151594, "lat": 39.9744265, "lon": -0.0490642}, {"type": "node", "id": 1307241064, "lat": 39.9866402, "lon": -0.0358676, "tags": {"amenity": "pharmacy", "dispensing": "yes", "healthcare": "pharmacy", "name": "Farmacia Inmaculada Riera Guasp", "opening_hours": "Mo-Fr 09:00-14:00, 17:00-20:00; Sa 09:30-13:30; Su,PH off", "phone": "+34 964 220285", "source": "Ayuntamiento de Castell\u00f3n", "source_ref": "http://www.castello.es/generico.php?cod1=30&cod2=621", "wheelchair": "yes"}}, {"type": "node", "id": 1307241071, "lat": 39.9873328, "lon": -0.0604297, "tags": {"amenity": "pharmacy", "dispensing": "yes", "healthcare": "pharmacy", "name": "Farmacia M\u00aa Angeles Marmaneu Girona", "operator": "VICTOR PASCUAL MARMANEU, MARIA ANGELES MARMANEU GIRONA", "phone": "+34 964 212127", "source": "Ayuntamiento de Castell\u00f3n", "source_ref": "http://www.castello.es/generico.php?cod1=30&cod2=621"}}, {"type": "node", "id": 1307241075, "lat": 39.9914451, "lon": -0.0395745, "tags": {"addr:housenumber": "51", "addr:postcode": "12004", "addr:street": "Ronda Magdalena", "amenity": "pharmacy", "dispensing": "yes", "healthcare": "pharmacy", "name": "Farmacia Bengochea-Tirado C.B", "opening_hours": "Mo-Fr 09:00-14:00,17:00-20:00; Sa 09:30-13:30; PH off", "phone": "+34 964 211045", "source": "Ayuntamiento de Castell\u00f3n", "source_ref": "http://www.castello.es/generico.php?cod1=30&cod2=621", "website": "http://farmaciabengocheatirado.com"}}, {"type": "node", "id": 1307241079, "lat": 39.98873, "lon": -0.04233, "tags": {"amenity": "pharmacy", "dispensing": "yes", "healthcare": "pharmacy", "name": "Farmacia Gracia Aragon\u00e9s Llop", "phone": "+34 964 210615", "source": "Ayuntamiento de Castell\u00f3n", "source_ref": "http://www.castello.es/generico.php?cod1=30&cod2=621"}}, {"type": "node", "id": 1307241088, "lat": 39.98154, "lon": -0.05044, "tags": {"amenity": "pharmacy", "dispensing": "yes", "healthcare": "pharmacy", "name": "Farmacia Dolores Monzon\u00eds Alc\u00f3n", "phone": "+34 964 217045", "source": "Ayuntamiento de Castell\u00f3n", "source_ref": "http://www.castello.es/generico.php?cod1=30&cod2=621"}}, {"type": "node", "id": 1307241089, "lat": 39.9846957, "lon": -0.0374507, "tags": {"amenity": "pharmacy", "dispensing": "yes", "healthcare": "pharmacy", "name": "Farmacia Carmen Giner Garc\u00eda", "phone": "+34 964 224032", "source": "Ayuntamiento de Castell\u00f3n", "source_ref": "http://www.castello.es/generico.php?cod1=30&cod2=621"}}, {"type": "node", "id": 1307241097, "lat": 39.98529, "lon": -0.03898, "tags": {"amenity": "pharmacy", "dispensing": "yes", "name": "Farmacia Vicente Calduch Rodr\u00edguez", "opening_hours": "Mo-Fr 09:00-14:00,17:00-20:00; Sa 09:30-13:30", "phone": "+34 964 211136", "source": "Ayuntamiento de Castell\u00f3n", "source_ref": "http://www.castello.es/generico.php?cod1=30&cod2=621", "wheelchair": "no"}}, {"type": "node", "id": 1307241098, "lat": 39.975335, "lon": -0.0474982, "tags": {"addr:postcode": "12005", "amenity": "pharmacy", "dispensing": "yes", "name": "Farmacia Vicente Barreda Barreda", "phone": "+34 964 205986", "source": "Ayuntamiento de Castell\u00f3n", "source_ref": "http://www.castello.es/generico.php?cod1=30&cod2=621"}}, {"type": "node", "id": 1307241107, "lat": 39.98483, "lon": -0.03077, "tags": {"addr:city": "Castell\u00f3 de la Plana", "addr:housenumber": "12", "addr:postcode": "12003", "addr:street": "Avinguda del Mar / Avenida del Mar", "amenity": "pharmacy", "dispensing": "yes", "drive_through": "no", "healthcare": "pharmacy", "name": "Farmacia Av. del Mar SCP", "phone": "+34 964 260276", "source": "Ayuntamiento de Castell\u00f3n", "source_ref": "http://www.castello.es/generico.php?cod1=30&cod2=621", "website": "https://www.farmaciaavenidadelmar.com/", "wheelchair": "yes"}}, {"type": "node", "id": 1307241109, "lat": 39.97843, "lon": -0.04288, "tags": {"amenity": "pharmacy", "dispensing": "yes", "healthcare": "pharmacy", "name": "Farmacia M\u00aa Jesus Bag\u00e1n Sanz", "phone": "+34 964 206783", "source": "Ayuntamiento de Castell\u00f3n", "source_ref": "http://www.castello.es/generico.php?cod1=30&cod2=621"}}, {"type": "node", "id": 1307241112, "lat": 39.9792267, "lon": -0.0489992, "tags": {"amenity": "pharmacy", "dispensing": "yes", "healthcare": "pharmacy", "name": "Farmacia Paz Ferragut Chillida", "phone": "+34 964 216552", "source": "Ayuntamiento de Castell\u00f3n", "source_ref": "http://www.castello.es/generico.php?cod1=30&cod2=621"}}, {"type": "node", "id": 1307241124, "lat": 39.99065, "lon": -0.03171, "tags": {"amenity": "pharmacy", "dispensing": "yes", "healthcare": "pharmacy", "name": "Farmacia Sanchis", "opening_hours": "Mo-Fr 09:00-14:00,17:00-20:00;Sa 09:30-13:30;Su,PH off", "operator": "Manuel F. Sanchis Guinot", "phone": "+34 964 23 14 62", "source": "Ayuntamiento de Castell\u00f3n", "source_ref": "http://www.castello.es/generico.php?cod1=30&cod2=621"}}, {"type": "node", "id": 1307241125, "lat": 39.98918, "lon": -0.03915, "tags": {"amenity": "pharmacy", "dispensing": "yes", "healthcare": "pharmacy", "name": "Farm\u00e0cia Laia Menezo Dolz", "phone": "+34 964 216473", "source": "Ayuntamiento de Castell\u00f3n", "source_ref": "http://www.castello.es/generico.php?cod1=30&cod2=621"}}, {"type": "node", "id": 1307241132, "lat": 39.9838009, "lon": -0.0381256, "tags": {"amenity": "pharmacy", "check_date": "2024-11-19", "dispensing": "yes", "healthcare": "pharmacy", "name": "Farmacia Ferrer C.B", "phone": "+34 964 223923", "source": "Ayuntamiento de Castell\u00f3n", "source_ref": "http://www.castello.es/generico.php?cod1=30&cod2=621", "wheelchair": "yes"}}, {"type": "node", "id": 1307241133, "lat": 39.997569, "lon": -0.0436239, "tags": {"amenity": "pharmacy", "dispensing": "yes", "healthcare": "pharmacy", "name": "Farmacia M\u00aa Pilar Badenes Franch", "phone": "+34 964 213362", "source": "Ayuntamiento de Castell\u00f3n", "source_ref": "http://www.castello.es/generico.php?cod1=30&cod2=621"}}, {"type": "node", "id": 1307241134, "lat": 39.98619, "lon": -0.04235, "tags": {"amenity": "pharmacy", "dispensing": "yes", "name": "Farmacia Juan Carlos Pavia Garc\u00eda de Leonardo", "phone": "+34 964 211475", "source": "Ayuntamiento de Castell\u00f3n", "source_ref": "http://www.castello.es/generico.php?cod1=30&cod2=621"}}, {"type": "node", "id": 1307241136, "lat": 39.9791, "lon": -0.04338, "tags": {"amenity": "pharmacy", "dispensing": "yes", "healthcare": "pharmacy", "name": "Farmacia Fernando Rios Ruiz", "phone": "+34 964 203819", "source": "Ayuntamiento de Castell\u00f3n", "source_ref": "http://www.castello.es/generico.php?cod1=30&cod2=621"}}, {"type": "node", "id": 1307241137, "lat": 39.9845703, "lon": -0.0354217, "tags": {"amenity": "pharmacy", "dispensing": "yes", "healthcare": "pharmacy", "name": "Farm\u00e0cia Maria Latasa Barros", "phone": "+34 964 223117", "source": "Ayuntamiento de Castell\u00f3n", "source_ref": "http://www.castello.es/generico.php?cod1=30&cod2=621"}}, {"type": "node", "id": 1307241138, "lat": 39.9905397, "lon": -0.0426955, "tags": {"amenity": "pharmacy", "dispensing": "yes", "healthcare": "pharmacy", "name": "Farmacia Manuel Cubedo Ventura", "phone": "+34 964 214237", "source": "Ayuntamiento de Castell\u00f3n", "source_ref": "http://www.castello.es/generico.php?cod1=30&cod2=621"}}, {"type": "node", "id": 1307241139, "lat": 39.9871073, "lon": -0.0405039, "tags": {"addr:city": "Castell\u00f3n de la Plana / Castell\u00f3 de la Plana", "addr:housenumber": "7", "addr:postcode": "12001", "addr:street": "Pla\u00e7a de Tetuan - Plaza Tetu\u00e1n", "amenity": "pharmacy", "contact:facebook": "https://www.facebook.com/farmaciacentrocastellonfabregat/", "delivery": "yes", "dispensing": "yes", "drive_through": "no", "healthcare": "pharmacy", "name": "Farmacia Jorge Fabregat Fabregat", "opening_hours": "Mo-Fr 09:00-14:00,17:00-20:00; Sa 09:30-13:30", "payment:cash": "yes", "payment:contactless": "yes", "payment:credit_cards": "yes", "payment:debit_cards": "yes", "phone": "+34 964 21 20 23", "source": "Ayuntamiento de Castell\u00f3n", "source_ref": "http://www.castello.es/generico.php?cod1=30&cod2=621", "wheelchair": "yes"}}, {"type": "node", "id": 1307241140, "lat": 39.9905788, "lon": 0.0246846, "tags": {"amenity": "pharmacy", "dispensing": "yes", "name": "Farmacia Manuel Ansuategui Roca", "phone": "+34 964 280366", "source": "Ayuntamiento de Castell\u00f3n", "source_ref": "http://www.castello.es/generico.php?cod1=30&cod2=621", "wheelchair": "yes"}}, {"type": "node", "id": 1307241141, "lat": 39.95668, "lon": -0.05907, "tags": {"amenity": "pharmacy", "dispensing": "yes", "healthcare": "pharmacy", "name": "Farmacia Federico de Francia Gutierrez", "phone": "+34 964 211804", "source": "Ayuntamiento de Castell\u00f3n", "source_ref": "http://www.castello.es/generico.php?cod1=30&cod2=621"}}, {"type": "node", "id": 1307241143, "lat": 39.9891797, "lon": -0.0336258, "tags": {"addr:city": "Castell\u00f3n de la Plana", "addr:housenumber": "12", "addr:postcode": "12003", "addr:street": "Avinguda de la Mare de D\u00e9u del Lled\u00f3 /Avenida de Lid\u00f3n", "amenity": "pharmacy", "dispensing": "yes", "drive_through": "no", "healthcare": "pharmacy", "name": "Farm\u00e0cia Arturo Esteve Gonz\u00e1lez", "opening_hours": "Mo-Fr 09:00-14:00,17:00-20:00; Sa 09:30-13:30", "phone": "+34 964 220224", "source": "Ayuntamiento de Castell\u00f3n", "source_ref": "http://www.castello.es/generico.php?cod1=30&cod2=621", "wheelchair": "yes"}}, {"type": "node", "id": 1307241144, "lat": 39.98436, "lon": -0.0376, "tags": {"amenity": "pharmacy", "dispensing": "yes", "healthcare": "pharmacy", "name": "Farmacia Franciso Carceller Mart\u00ednez", "phone": "+34 964 224686", "source": "Ayuntamiento de Castell\u00f3n", "source_ref": "http://www.castello.es/generico.php?cod1=30&cod2=621"}}, {"type": "node", "id": 1307241145, "lat": 39.97901, "lon": -0.03622, "tags": {"amenity": "pharmacy", "dispensing": "yes", "healthcare": "pharmacy", "name": "Farmacia Rosa Tena Marqu\u00e9s", "phone": "+34 964 236056", "source": "Ayuntamiento de Castell\u00f3n", "source_ref": "http://www.castello.es/generico.php?cod1=30&cod2=621"}}, {"type": "node", "id": 1307241146, "lat": 39.9911, "lon": -0.0634, "tags": {"amenity": "pharmacy", "dispensing": "yes", "healthcare": "pharmacy", "name": "Farmacia Clotilde Adell Simo - Encarnaci\u00f3n Ortiz Mart\u00ed", "phone": "+34 964 730881", "source": "Ayuntamiento de Castell\u00f3n;local knowledge", "source_ref": "http://www.castello.es/generico.php?cod1=30&cod2=621"}}, {"type": "node", "id": 1307241147, "lat": 39.99185, "lon": -0.04527, "tags": {"amenity": "pharmacy", "dispensing": "yes", "healthcare": "pharmacy", "name": "Farmacia Saura-Roca", "phone": "+34 964 201435", "source": "Ayuntamiento de Castell\u00f3n", "source_ref": "http://www.castello.es/generico.php?cod1=30&cod2=621"}}, {"type": "node", "id": 1307241148, "lat": 39.9809524, "lon": -0.0299201, "tags": {"addr:city": "Castell\u00f3 de la Plana", "addr:housenumber": "4", "addr:postcode": "12003", "addr:street": "Carrer de Clara Campoamor / Calle Clara Campoamor", "amenity": "pharmacy", "dispensing": "yes", "drive_through": "no", "healthcare": "pharmacy", "name": "Farmacia Carmen Martinez G\u00f3mez", "phone": "+34 964 222718", "source": "Ayuntamiento de Castell\u00f3n", "source_ref": "http://www.castello.es/generico.php?cod1=30&cod2=621"}}, {"type": "node", "id": 1307241149, "lat": 39.9872936, "lon": -0.0507542, "tags": {"amenity": "pharmacy", "dispensing": "yes", "healthcare": "pharmacy", "name": "Farmacia Cardama-Garrido C.B", "phone": "+34 964 217637", "source": "Ayuntamiento de Castell\u00f3n", "source_ref": "http://www.castello.es/generico.php?cod1=30&cod2=621"}}, {"type": "node", "id": 1307241150, "lat": 39.98305, "lon": -0.04329, "tags": {"amenity": "pharmacy", "dispensing": "yes", "healthcare": "pharmacy", "name": "Farmacia Felix Baltanas Latasa", "phone": "+34 964 212624", "source": "Ayuntamiento de Castell\u00f3n", "source_ref": "http://www.castello.es/generico.php?cod1=30&cod2=621"}}, {"type": "node", "id": 1307241151, "lat": 39.98612, "lon": -0.04016, "tags": {"amenity": "pharmacy", "check_date": "2024-11-19", "dispensing": "yes", "healthcare": "pharmacy", "name": "Farmacia Cristina Peris Grau", "phone": "+34 964 216891", "source": "Ayuntamiento de Castell\u00f3n", "source_ref": "http://www.castello.es/generico.php?cod1=30&cod2=621", "wheelchair": "yes"}}, {"type": "node", "id": 1307241152, "lat": 39.97035, "lon": 0.01166, "tags": {"amenity": "pharmacy", "dispensing": "yes", "healthcare": "pharmacy", "name": "Farmacia Consuelo Sanfeliu Montolio", "phone": "+34 964 284968", "source": "Ayuntamiento de Castell\u00f3n", "source_ref": "http://www.castello.es/generico.php?cod1=30&cod2=621"}}, {"type": "node", "id": 1307241153, "lat": 39.99312, "lon": -0.04096, "tags": {"amenity": "pharmacy", "dispensing": "yes", "healthcare": "pharmacy", "name": "Farm\u00e0cia Dr. Mulet CB", "phone": "+34 964 212704", "source": "Ayuntamiento de Castell\u00f3n", "source_ref": "http://www.castello.es/generico.php?cod1=30&cod2=621"}}, {"type": "node", "id": 1307241154, "lat": 39.97709, "lon": -0.04771, "tags": {"amenity": "pharmacy", "dispensing": "yes", "name": "Farmacia Paula Lavall Carrio", "phone": "+34 964 340707", "source": "Ayuntamiento de Castell\u00f3n", "source_ref": "http://www.castello.es/generico.php?cod1=30&cod2=621"}}, {"type": "node", "id": 1307241155, "lat": 39.98125, "lon": -0.04592, "tags": {"amenity": "pharmacy", "dispensing": "yes", "healthcare": "pharmacy", "name": "Farmacia Victorino Aparici Tolentino", "phone": "+34 964 210241", "source": "Ayuntamiento de Castell\u00f3n", "source_ref": "http://www.castello.es/generico.php?cod1=30&cod2=621"}}, {"type": "node", "id": 1307241156, "lat": 39.98495, "lon": -0.03893, "tags": {"amenity": "pharmacy", "check_date": "2024-11-19", "dispensing": "yes", "healthcare": "pharmacy", "name": "Farmacia Jaume Beltr\u00e1n Hern\u00e1ndez", "phone": "+34 964 269622", "source": "Ayuntamiento de Castell\u00f3n", "source_ref": "http://www.castello.es/generico.php?cod1=30&cod2=621"}}, {"type": "node", "id": 1307241157, "lat": 39.97548, "lon": 0.0125, "tags": {"amenity": "pharmacy", "dispensing": "yes", "name": "Farmacia Guinot Corell", "phone": "+34 964 285081", "source": "Ayuntamiento de Castell\u00f3n", "source_ref": "http://www.castello.es/generico.php?cod1=30&cod2=621"}}, {"type": "node", "id": 1307241158, "lat": 39.9824634, "lon": -0.0284013, "tags": {"addr:city": "Castell\u00f3 de la Plana", "addr:housenumber": "57", "addr:postcode": "12003", "addr:street": "Avinguda dels Germans Bou", "amenity": "pharmacy", "check_date": "2024-11-19", "dispensing": "yes", "drive_through": "no", "healthcare": "pharmacy", "name": "Farm\u00e0cia Teresa Monta\u00f1\u00e9s Pallar\u00e9s", "phone": "+34 964 234616", "source": "Ayuntamiento de Castell\u00f3n", "source_ref": "http://www.castello.es/generico.php?cod1=30&cod2=621", "wheelchair": "yes"}}, {"type": "node", "id": 1307241159, "lat": 39.9864617, "lon": -0.0281577, "tags": {"amenity": "pharmacy", "dispensing": "yes", "healthcare": "pharmacy", "name": "Farmacia Rafael Garc\u00eda Fortea", "phone": "+34 964 221300", "source": "Ayuntamiento de Castell\u00f3n", "source_ref": "http://www.castello.es/generico.php?cod1=30&cod2=621"}}, {"type": "node", "id": 1307241160, "lat": 39.9769491, "lon": -0.0365268, "tags": {"amenity": "pharmacy", "dispensing": "yes", "healthcare": "pharmacy", "name": "Farmacia M\u00aa Luisa Calder\u00f3n Amigo", "phone": "+34 964 260666", "source": "Ayuntamiento de Castell\u00f3n", "source_ref": "http://www.castello.es/generico.php?cod1=30&cod2=621"}}, {"type": "node", "id": 1307241161, "lat": 39.9939012, "lon": -0.0364582, "tags": {"amenity": "pharmacy", "dispensing": "yes", "healthcare": "pharmacy", "name": "Farmacia Fibla Traver y Otro C.B", "opening_hours": "Mo-Fr 09:00-14:00,17:00-20:00; Sa 09:30-13:30", "phone": "+34 964 225294", "source": "Ayuntamiento de Castell\u00f3n", "source_ref": "http://www.castello.es/generico.php?cod1=30&cod2=621"}}, {"type": "node", "id": 1307241162, "lat": 39.9844589, "lon": -0.0408234, "tags": {"amenity": "pharmacy", "dispensing": "no", "healthcare": "pharmacy", "name": "Parafarmacia del Real", "opening_hours": "Mo-Fr 10:00-14:00,17:00-20:00; Sa 10:00-14:00", "phone": "+34 964 250345", "source": "Ayuntamiento de Castell\u00f3n", "source_ref": "http://www.castello.es/generico.php?cod1=30&cod2=621", "wheelchair": "no"}}, {"type": "node", "id": 1307241163, "lat": 39.98578, "lon": -0.03702, "tags": {"amenity": "pharmacy", "dispensing": "yes", "healthcare": "pharmacy", "name": "Farmacia M\u00aa Amparo Ros Adelantado", "phone": "+34 964 224519", "source": "Ayuntamiento de Castell\u00f3n", "source_ref": "http://www.castello.es/generico.php?cod1=30&cod2=621"}}, {"type": "node", "id": 1307241164, "lat": 39.99228, "lon": -0.03494, "tags": {"amenity": "pharmacy", "dispensing": "yes", "healthcare": "pharmacy", "name": "Farmacia Inmaculada Mart\u00ednez G\u00f3mez", "phone": "+34 964 226738", "source": "Ayuntamiento de Castell\u00f3n", "source_ref": "http://www.castello.es/generico.php?cod1=30&cod2=621"}}, {"type": "node", "id": 1307241165, "lat": 39.9786608, "lon": -0.0339713, "tags": {"amenity": "pharmacy", "dispensing": "yes", "healthcare": "pharmacy", "name": "Farmacia Delgado Correa S.C.P", "phone": "+34 964 225686", "source": "Ayuntamiento de Castell\u00f3n", "source_ref": "http://www.castello.es/generico.php?cod1=30&cod2=621"}}, {"type": "node", "id": 1307241166, "lat": 39.9818715, "lon": -0.0335595, "tags": {"addr:city": "Castell\u00f3", "addr:housenumber": "5", "addr:postcode": "12003", "addr:street": "Calle Maestro Ripoll\u00e9s", "amenity": "pharmacy", "dispensing": "yes", "drive_through": "no", "healthcare": "pharmacy", "name": "Farm\u00e0cia Mart\u00ed - Lucas SCP", "phone": "+34 964 226888", "source": "Ayuntamiento de Castell\u00f3n", "source_ref": "http://www.castello.es/generico.php?cod1=30&cod2=621"}}, {"type": "node", "id": 1307241167, "lat": 39.9808407, "lon": -0.0368765, "tags": {"amenity": "pharmacy", "dispensing": "yes", "healthcare": "pharmacy", "name": "Farmacia Ana M\u00aa Arnau Mecho", "phone": "+34 964 221395", "source": "Ayuntamiento de Castell\u00f3n", "source_ref": "http://www.castello.es/generico.php?cod1=30&cod2=621", "wheelchair": "yes"}}, {"type": "node", "id": 1307241168, "lat": 39.98033, "lon": -0.06999, "tags": {"amenity": "pharmacy", "dispensing": "yes", "name": "Farmacia Mar\u00eda Prats Tolos", "phone": "+34 964 243138", "source": "Ayuntamiento de Castell\u00f3n", "source_ref": "http://www.castello.es/generico.php?cod1=30&cod2=621"}}, {"type": "node", "id": 1307241169, "lat": 39.98483, "lon": -0.04401, "tags": {"amenity": "pharmacy", "dispensing": "yes", "healthcare": "pharmacy", "name": "Farmacia Amparo Gras LLopis", "phone": "+34 964 212664", "source": "Ayuntamiento de Castell\u00f3n", "source_ref": "http://www.castello.es/generico.php?cod1=30&cod2=621"}}, {"type": "node", "id": 1307241170, "lat": 39.98592, "lon": -0.04411, "tags": {"amenity": "pharmacy", "dispensing": "yes", "healthcare": "pharmacy", "name": "Farmacia Encarnaci\u00f3n Castillo Garc\u00eda", "opening_hours": "Mo-Fr 09:00-14:00,17:00-20:00; Sa 09:30-13:30", "phone": "+34 964 217329", "source": "Ayuntamiento de Castell\u00f3n", "source_ref": "http://www.castello.es/generico.php?cod1=30&cod2=621"}}, {"type": "node", "id": 1307241171, "lat": 40.001789, "lon": -0.0469711, "tags": {"amenity": "pharmacy", "dispensing": "yes", "healthcare": "pharmacy", "name": "Farmacia San Agust\u00edn y San Marcos", "operator": "Jose L. Escrig Orenga", "phone": "+34 964 213368", "source": "Ayuntamiento de Castell\u00f3n", "source_ref": "http://www.castello.es/generico.php?cod1=30&cod2=621"}}, {"type": "node", "id": 1307241172, "lat": 39.98538, "lon": -0.0470867, "tags": {"amenity": "pharmacy", "dispensing": "yes", "healthcare": "pharmacy", "name": "Farmacia Victor V\u00e1zquez Bayarri", "phone": "+34 964 215561", "source": "Ayuntamiento de Castell\u00f3n", "source_ref": "http://www.castello.es/generico.php?cod1=30&cod2=621"}}, {"type": "node", "id": 1307241181, "lat": 39.98025, "lon": -0.03236, "tags": {"amenity": "pharmacy", "dispensing": "yes", "healthcare": "pharmacy", "name": "Farmacia Mario A. Molina Mu\u00f1oz", "phone": "+34 964 230873", "source": "Ayuntamiento de Castell\u00f3n", "source_ref": "http://www.castello.es/generico.php?cod1=30&cod2=621", "wheelchair": "yes"}}, {"type": "node", "id": 1307241182, "lat": 39.9913445, "lon": -0.0334455, "tags": {"amenity": "pharmacy", "dispensing": "yes", "healthcare": "pharmacy", "name": "Farmacia Gilabert-Soler C.B", "phone": "+34 964 221533", "source": "Ayuntamiento de Castell\u00f3n", "source_ref": "http://www.castello.es/generico.php?cod1=30&cod2=621"}}, {"type": "node", "id": 1307241183, "lat": 39.9856495, "lon": -0.0365902, "tags": {"amenity": "pharmacy", "dispensing": "yes", "healthcare": "pharmacy", "name": "Farm\u00e0cia Segarra - Segarra SCP", "phone": "+34 964 223372", "source": "Ayuntamiento de Castell\u00f3n", "source_ref": "http://www.castello.es/generico.php?cod1=30&cod2=621"}}, {"type": "node", "id": 1307241190, "lat": 39.98658, "lon": -0.03813, "tags": {"amenity": "pharmacy", "check_date": "2024-11-19", "dispensing": "yes", "healthcare": "pharmacy", "name": "Farm\u00e0cia Calder\u00f3n CB", "opening_hours": "Mo-Sa 09:00-21:00;Su,PH off", "phone": "+34 964 220216", "source": "Ayuntamiento de Castell\u00f3n", "source_ref": "http://www.castello.es/generico.php?cod1=30&cod2=621", "wheelchair": "yes"}}, {"type": "node", "id": 1307241194, "lat": 39.98556, "lon": -0.05075, "tags": {"amenity": "pharmacy", "dispensing": "yes", "healthcare": "pharmacy", "name": "Farmacia Marco Beltr\u00e1n C.B", "phone": "+34 964 218918", "source": "Ayuntamiento de Castell\u00f3n", "source_ref": "http://www.castello.es/generico.php?cod1=30&cod2=621"}}, {"type": "node", "id": 1307241195, "lat": 39.9809374, "lon": -0.0478951, "tags": {"amenity": "pharmacy", "dispensing": "yes", "healthcare": "pharmacy", "name": "Farmacia Arturo Baltanas Latasa", "phone": "+34 964 213046", "source": "Ayuntamiento de Castell\u00f3n", "source_ref": "http://www.castello.es/generico.php?cod1=30&cod2=621"}}, {"type": "node", "id": 1307241202, "lat": 39.9750077, "lon": -0.0499047, "tags": {"amenity": "pharmacy", "dispensing": "yes", "name": "Farmacia Asunci\u00f3n Vicente Valls", "phone": "+34 964 219766", "source": "Ayuntamiento de Castell\u00f3n", "source_ref": "http://www.castello.es/generico.php?cod1=30&cod2=621"}}, {"type": "node", "id": 1307241205, "lat": 39.99042, "lon": -0.03673, "tags": {"amenity": "pharmacy", "dispensing": "yes", "healthcare": "pharmacy", "name": "Farmacia Pilar Ballester Feliu", "opening_hours": "Mo-Su,PH 09:00-22:00", "phone": "+34 964 214523", "source": "Ayuntamiento de Castell\u00f3n", "source_ref": "http://www.castello.es/generico.php?cod1=30&cod2=621", "wheelchair": "yes"}}, {"type": "node", "id": 1307241211, "lat": 39.98486, "lon": -0.04033, "tags": {"amenity": "pharmacy", "dispensing": "yes", "healthcare": "pharmacy", "name": "Farmacia Jose Salazar Alcalde", "phone": "+34 964 212275", "source": "Ayuntamiento de Castell\u00f3n", "source_ref": "http://www.castello.es/generico.php?cod1=30&cod2=621"}}, {"type": "node", "id": 1307241214, "lat": 39.97936, "lon": -0.04175, "tags": {"amenity": "pharmacy", "dispensing": "yes", "healthcare": "pharmacy", "name": "Farmacia Llopis-Llopis S.C.P", "phone": "+34 964 209619", "source": "Ayuntamiento de Castell\u00f3n", "source_ref": "http://www.castello.es/generico.php?cod1=30&cod2=621"}}, {"type": "node", "id": 1307241216, "lat": 39.98909, "lon": -0.03725, "tags": {"amenity": "pharmacy", "dispensing": "yes", "healthcare": "pharmacy", "name": "Farm\u00e0cia Barber\u00e0 SCP", "opening_hours": "Mo-Fr 09:00-14:00,17:00-20:00; Sa 09:00-13:00", "phone": "+34 964 211754", "source": "Ayuntamiento de Castell\u00f3n", "source_ref": "http://www.castello.es/generico.php?cod1=30&cod2=621"}}, {"type": "node", "id": 1307241225, "lat": 39.9827, "lon": -0.03653, "tags": {"amenity": "pharmacy", "dispensing": "yes", "healthcare": "pharmacy", "name": "Farmacia Victor Mart\u00edn Bagant", "phone": "+34 964 260788", "source": "Ayuntamiento de Castell\u00f3n", "source_ref": "http://www.castello.es/generico.php?cod1=30&cod2=621"}}, {"type": "node", "id": 1307241229, "lat": 39.9721084, "lon": 0.0137136, "tags": {"amenity": "pharmacy", "check_date": "2024-11-15", "dispensing": "yes", "healthcare": "pharmacy", "name": "Farm\u00e0cia M\u00aa Teresa Ripoll\u00e9s Prior", "phone": "+34 964 283152", "source": "Ayuntamiento de Castell\u00f3n", "source_ref": "http://www.castello.es/generico.php?cod1=30&cod2=621"}}, {"type": "node", "id": 1307241233, "lat": 39.99064, "lon": -0.04766, "tags": {"amenity": "pharmacy", "dispensing": "yes", "healthcare": "pharmacy", "name": "Farmacia Josefa Montoliu Ripoll\u00e9s", "phone": "+34 964 211307", "source": "Ayuntamiento de Castell\u00f3n", "source_ref": "http://www.castello.es/generico.php?cod1=30&cod2=621"}}, {"type": "node", "id": 1307241236, "lat": 39.98142, "lon": -0.04093, "tags": {"amenity": "pharmacy", "dispensing": "yes", "healthcare": "pharmacy", "name": "Farmacia Fernanda Guiral Tellado", "phone": "+34 964 202985", "source": "Ayuntamiento de Castell\u00f3n", "source_ref": "http://www.castello.es/generico.php?cod1=30&cod2=621"}}, {"type": "node", "id": 1307241241, "lat": 39.98885, "lon": -0.04668, "tags": {"amenity": "pharmacy", "dispensing": "yes", "healthcare": "pharmacy", "name": "Farmacia Julio Catal\u00e1n Garc\u00e9s", "phone": "+34 964 212356", "source": "Ayuntamiento de Castell\u00f3n", "source_ref": "http://www.castello.es/generico.php?cod1=30&cod2=621"}}, {"type": "node", "id": 1307241244, "lat": 39.9859366, "lon": -0.0321983, "tags": {"addr:city": "Castell\u00f3 de la Plana", "addr:housenumber": "2", "addr:postcode": "12003", "addr:street": "Carrer de Benicarl\u00f3", "amenity": "pharmacy", "dispensing": "yes", "healthcare": "pharmacy", "name": "Farmacia Esther Alonso Climent", "phone": "+34 964 226549", "source": "Ayuntamiento de Castell\u00f3n", "source_ref": "http://www.castello.es/generico.php?cod1=30&cod2=621"}}, {"type": "node", "id": 1307241250, "lat": 39.97366, "lon": 0.01296, "tags": {"amenity": "pharmacy", "dispensing": "yes", "name": "Farmacia Mercedes Almela Esteve", "phone": "+34 964 284296", "source": "Ayuntamiento de Castell\u00f3n", "source_ref": "http://www.castello.es/generico.php?cod1=30&cod2=621"}}, {"type": "node", "id": 1307241253, "lat": 39.9886827, "lon": -0.031233, "tags": {"addr:city": "Castell\u00f3 de la Plana", "addr:housenumber": "25", "addr:postcode": "12003", "addr:street": "Carrer de Benicarl\u00f3", "amenity": "pharmacy", "dispensing": "yes", "drive_through": "no", "healthcare": "pharmacy", "name": "Farmacia Enrique Monerris Gasco", "phone": "+34 964 226822", "source": "Ayuntamiento de Castell\u00f3n", "source_ref": "http://www.castello.es/generico.php?cod1=30&cod2=621"}}, {"type": "node", "id": 1307241257, "lat": 39.98275, "lon": -0.03955, "tags": {"amenity": "pharmacy", "dispensing": "yes", "name": "Farmacia M\u00aa Francisca Ferragut Chillida", "phone": "+34 964 223997", "source": "Ayuntamiento de Castell\u00f3n", "source_ref": "http://www.castello.es/generico.php?cod1=30&cod2=621"}}, {"type": "node", "id": 1307241259, "lat": 39.9799916, "lon": -0.0385854, "tags": {"amenity": "pharmacy", "dispensing": "yes", "healthcare": "pharmacy", "name": "Farmacia Rosa E. Simarro Hern\u00e1ndez", "phone": "+34 964 242612", "source": "Ayuntamiento de Castell\u00f3n", "source_ref": "http://www.castello.es/generico.php?cod1=30&cod2=621"}}, {"type": "node", "id": 1307241260, "lat": 39.98419, "lon": -0.04095, "tags": {"amenity": "pharmacy", "dispensing": "yes", "healthcare": "pharmacy", "name": "Farmacia Fernando Matutano Roig", "opening_hours": "Mo-Fr 09:00-14:00,17:00-20:00; Sa 09:30-13:30", "phone": "+34 964 216078", "source": "Ayuntamiento de Castell\u00f3n", "source_ref": "http://www.castello.es/generico.php?cod1=30&cod2=621", "wheelchair": "yes"}}, {"type": "node", "id": 1307241261, "lat": 39.97731, "lon": -0.05035, "tags": {"amenity": "pharmacy", "dispensing": "yes", "healthcare": "pharmacy", "name": "Farmacia Domingo S.C.P", "phone": "+34 964 218760", "source": "Ayuntamiento de Castell\u00f3n", "source_ref": "http://www.castello.es/generico.php?cod1=30&cod2=621"}}, {"type": "node", "id": 1307241262, "lat": 39.9869379, "lon": -0.0339272, "tags": {"amenity": "pharmacy", "dispensing": "yes", "healthcare": "pharmacy", "name": "Farmacia Beltr\u00e1n - Benet", "phone": "+34 964 227538", "source": "Ayuntamiento de Castell\u00f3n", "source_ref": "http://www.castello.es/generico.php?cod1=30&cod2=621"}}, {"type": "node", "id": 1307241263, "lat": 39.98119, "lon": -0.03535, "tags": {"amenity": "pharmacy", "dispensing": "yes", "healthcare": "pharmacy", "name": "Farmacia Jes\u00fas R. Villanueva Godes", "phone": "+34 964 221283", "source": "Ayuntamiento de Castell\u00f3n", "source_ref": "http://www.castello.es/generico.php?cod1=30&cod2=621"}}, {"type": "node", "id": 1457521138, "lat": 39.7826358, "lon": -0.1893385}, {"type": "node", "id": 1457654931, "lat": 39.7818756, "lon": -0.1875034, "tags": {"amenity": "pharmacy", "dispensing": "yes", "name": "Farmacia Xilxes"}}, {"type": "node", "id": 1457655007, "lat": 39.7824831, "lon": -0.1892577}, {"type": "node", "id": 1457655009, "lat": 39.7825087, "lon": -0.1891759}, {"type": "node", "id": 1457655011, "lat": 39.7825751, "lon": -0.1892151}, {"type": "node", "id": 1457655012, "lat": 39.7825822, "lon": -0.1891886}, {"type": "node", "id": 1457655016, "lat": 39.7826706, "lon": -0.1892351}, {"type": "node", "id": 1481423045, "lat": 39.8963213, "lon": -0.1126883, "tags": {"amenity": "pharmacy", "dispensing": "Farmacia"}}, {"type": "node", "id": 1524783298, "lat": 39.9529319, "lon": -0.0597251, "tags": {"addr:city": "Almassora", "addr:housenumber": "123", "addr:postcode": "12550", "addr:street": "Carrer del 9 d'Octubre", "amenity": "pharmacy", "name": "Farmacia Jose L. Moragrega", "opening_hours": "Mo-Fr 09:00-14:00,17:00-20:00", "phone": "+34 964 19 09 90"}}, {"type": "node", "id": 1734977921, "lat": 39.9967704, "lon": -0.0364263}, {"type": "node", "id": 1736215554, "lat": 39.8200997, "lon": -0.227839, "tags": {"addr:city": "la Vall d'Uix\u00f3", "addr:housenumber": "17", "addr:postcode": "12600", "addr:street": "Avinguda de les Corts Valencianes", "amenity": "pharmacy", "contact:whatsapp": "+34 638672416", "dispensing": "yes", "drive_through": "no", "healthcare": "pharmacy", "name": "Farmacia Ortopedia Les Corts", "operator": "Alicia Saera", "phone": "+34 964 665 628", "website": "https://www.farmacialavall.com/"}}, {"type": "node", "id": 1769775678, "lat": 39.9470273, "lon": -0.0603338, "tags": {"amenity": "pharmacy", "dispensing": "no", "name": "Farmacia Piquer"}}, {"type": "node", "id": 1769870154, "lat": 39.9433547, "lon": -0.0633591, "tags": {"amenity": "pharmacy", "name": "Carmen Grau"}}, {"type": "node", "id": 1769892893, "lat": 39.9440452, "lon": -0.0636006, "tags": {"amenity": "pharmacy", "dispensing": "yes", "name": "Ldo. Vicente Clausell"}}, {"type": "node", "id": 1769914992, "lat": 39.9522832, "lon": -0.0674255, "tags": {"amenity": "pharmacy", "dispensing": "yes", "name": "Pilar grau", "name:ca": "Pilar Grau"}}, {"type": "node", "id": 1769930567, "lat": 39.9480637, "lon": -0.0701346, "tags": {"amenity": "pharmacy", "name": "Lda. Amalia finestres"}}, {"type": "node", "id": 1781373944, "lat": 39.7508075, "lon": -0.2259875}, {"type": "node", "id": 1781373945, "lat": 39.7511744, "lon": -0.2254612}, {"type": "node", "id": 1781373946, "lat": 39.7512037, "lon": -0.2258539}, {"type": "node", "id": 1781373947, "lat": 39.7508114, "lon": -0.2254773}, {"type": "node", "id": 1783994192, "lat": 39.9500886, "lon": -0.0659206, "tags": {"addr:city": "Almassora", "addr:housenumber": "79", "addr:postcode": "12550", "addr:street": "Avenida Jos\u00e9 Ortiz", "amenity": "pharmacy", "dispensing": "yes", "name": "Isabel Llorach Garcia", "opening_hours": "Mo-Sa 09:00-21:00", "phone": "+34 674 79 16 08"}}, {"type": "node", "id": 1784032005, "lat": 39.9460748, "lon": -0.0645233, "tags": {"amenity": "pharmacy", "dispensing": "yes", "name": "Farm\u00e0cia", "name:ca": "Farm\u00e0cia", "source": "local konowelege"}}, {"type": "node", "id": 1803805715, "lat": 39.7425362, "lon": -0.1769303}, {"type": "node", "id": 1803805849, "lat": 39.7425757, "lon": -0.1770067}, {"type": "node", "id": 1803805871, "lat": 39.7426759, "lon": -0.1769191}, {"type": "node", "id": 1803805873, "lat": 39.7426364, "lon": -0.1768427}, {"type": "node", "id": 2279967772, "lat": 39.9900594, "lon": -0.0341589, "tags": {"amenity": "pharmacy", "dispensing": "no", "healthcare": "pharmacy", "name": "Parafarmacia Capuchinos", "phone": "+34 964 229414", "website": "https://parafarmaciacapuchinos.com/"}}, {"type": "node", "id": 2351334395, "lat": 40.0605199, "lon": -0.1391822, "tags": {"amenity": "pharmacy", "dispensing": "yes"}}, {"type": "node", "id": 2646124575, "lat": 40.0400394, "lon": -0.0739779}, {"type": "node", "id": 2646124576, "lat": 40.0400496, "lon": -0.073932}, {"type": "node", "id": 2646124577, "lat": 40.040052, "lon": -0.0741927}, {"type": "node", "id": 2646124578, "lat": 40.0400585, "lon": -0.0739851}, {"type": "node", "id": 2646124579, "lat": 40.0400686, "lon": -0.0739392}, {"type": "node", "id": 2646124580, "lat": 40.0400776, "lon": -0.0742025}, {"type": "node", "id": 2646124581, "lat": 40.0400956, "lon": -0.0739987}, {"type": "node", "id": 2646124582, "lat": 40.0401193, "lon": -0.0739038}, {"type": "node", "id": 2646124583, "lat": 40.0401211, "lon": -0.0740085}, {"type": "node", "id": 2646124584, "lat": 40.0401229, "lon": -0.0738877}, {"type": "node", "id": 2646124585, "lat": 40.0401423, "lon": -0.0739126}, {"type": "node", "id": 2646124586, "lat": 40.0401459, "lon": -0.0738965}, {"type": "node", "id": 2646124587, "lat": 40.040196, "lon": -0.0742478}, {"type": "node", "id": 2646124588, "lat": 40.0402355, "lon": -0.074224}, {"type": "node", "id": 2704073871, "lat": 39.9315388, "lon": -0.103113}, {"type": "node", "id": 2704073872, "lat": 39.9314504, "lon": -0.1029736}, {"type": "node", "id": 2704073873, "lat": 39.9309465, "lon": -0.1035636}, {"type": "node", "id": 3269210199, "lat": 40.0490882, "lon": 0.0688532, "tags": {"amenity": "pharmacy", "dispensing": "yes", "email": "farmasauraballester@gmail.com", "healthcare": "pharmacy", "name": "Farmacia Saura-Ballester", "phone": "+34 964392938", "website": "https://www.farmaciasauraballesterfmas.com/"}}, {"type": "node", "id": 3435264099, "lat": 39.8511445, "lon": -0.3203013, "tags": {"amenity": "pharmacy", "dispensing": "yes", "phone": "+34964651096"}}, {"type": "node", "id": 3990004721, "lat": 39.9787882, "lon": -0.0518926}, {"type": "node", "id": 3990004722, "lat": 39.9791481, "lon": -0.052838}, {"type": "node", "id": 3990004723, "lat": 39.9791638, "lon": -0.051649}, {"type": "node", "id": 3990004725, "lat": 39.9795237, "lon": -0.0525945}, {"type": "node", "id": 4016142781, "lat": 39.9793787, "lon": -0.0438805, "tags": {"amenity": "clinic", "healthcare": "clinic", "name": "Dr. Giner"}}, {"type": "node", "id": 4016148799, "lat": 39.9802269, "lon": -0.0443323, "tags": {"amenity": "clinic", "healthcare": "clinic", "name": "Kine Avant"}}, {"type": "node", "id": 4016148845, "lat": 39.9791306, "lon": -0.0452736, "tags": {"amenity": "clinic", "healthcare": "clinic", "name": "Vitalbed"}}, {"type": "node", "id": 4041733647, "lat": 39.9718265, "lon": 0.0122839, "tags": {"amenity": "pharmacy", "check_date": "2024-11-15", "dispensing": "yes", "healthcare": "pharmacy", "name": "Farmacia Fernando Roca Rodr\u00edguez", "phone": "+34 964 284936", "source": "Ayuntamiento de Castell\u00f3n", "source_ref": "http://www.castello.es/generico.php?cod1=30&cod2=621"}}, {"type": "node", "id": 4777553885, "lat": 39.8225158, "lon": -0.2273868, "tags": {"addr:city": "Vall de Ux\u00f3", "addr:postcode": "12600", "addr:street": "Calle Octavio Ten i Orenga", "amenity": "clinic", "healthcare": "clinic", "name": "Centre de Salut de la Vall d'Uix\u00f3 I", "operator": "Generalitat Valenciana"}}, {"type": "node", "id": 5015174603, "lat": 39.8236343, "lon": -0.2288783, "tags": {"amenity": "pharmacy", "name": "Farmacia Jos\u00e9 Vicente Bovaira Forner", "phone": "+34964661258"}}, {"type": "node", "id": 5017105961, "lat": 39.8016766, "lon": -0.132524, "tags": {"addr:city": "Moncofa", "addr:street": "Avenida del Puerto", "amenity": "pharmacy", "wheelchair": "yes"}}, {"type": "node", "id": 5021173935, "lat": 39.936377, "lon": -0.095695, "tags": {"amenity": "pharmacy", "drive_through": "no", "name": "Farmacia Santa Isabel"}}, {"type": "node", "id": 5021173936, "lat": 39.9377161, "lon": -0.0986085, "tags": {"amenity": "pharmacy", "name": "Farmacia David Monfort"}}, {"type": "node", "id": 5107702421, "lat": 39.9671329, "lon": -0.25655, "tags": {"addr:postcode": "12200", "addr:street": "Calle Sicilia", "amenity": "clinic", "name": "Centre Sanitari Integrat d'Onda II", "name:ca": "Centre Sanitari Integrat d'Onda II", "name:es": "Centro sanitario integrado de Onda II", "phone": "+34964396760"}}, {"type": "node", "id": 5266815774, "lat": 39.8888343, "lon": -0.0865316, "tags": {"addr:city": "Burriana / Borriana", "addr:housenumber": "36", "addr:postcode": "12530", "addr:street": "Carrer del Raval", "amenity": "pharmacy", "healthcare": "pharmacy", "name": "Farmacia Almela Castillo", "phone": "+34 964510029"}}, {"type": "node", "id": 5266815775, "lat": 39.8899276, "lon": -0.0847589, "tags": {"addr:city": "Burriana / Borriana", "addr:housenumber": "6", "addr:postcode": "12530", "addr:street": "Calle San Vicente", "amenity": "pharmacy", "email": "farmaciasamoto@hotmail.com", "healthcare": "pharmacy", "name": "Farmacia Sandra Moreno", "opening_hours": "Mo-Fr 09:00-13:30,16:30-20:00", "phone": "+34 964510296", "website": "https://www.farmaciasandramoreno.com/"}}, {"type": "node", "id": 5290349354, "lat": 39.8790233, "lon": -0.0767627}, {"type": "node", "id": 5290349355, "lat": 39.8794644, "lon": -0.0761542}, {"type": "node", "id": 5290349356, "lat": 39.8791122, "lon": -0.0756975}, {"type": "node", "id": 5290349357, "lat": 39.8786661, "lon": -0.0763073}, {"type": "node", "id": 5307601123, "lat": 39.8217705, "lon": -0.2392708, "tags": {"addr:housenumber": "66", "addr:postcode": "12600", "addr:street": "Avenida Suroeste", "amenity": "pharmacy", "email": "victor.diago@cofcastellon.org", "name": "Farmacia Diago Segarra", "opening_hours": "Mo-Fr 09:30-13:30, 17:00-20:00; Sa 09:00-13:30", "operator": "Orange", "phone": "+34 964660678", "website": "http://www.ifarmadiagosegarra.es"}}, {"type": "node", "id": 5365710513, "lat": 39.8263768, "lon": -0.2414408}, {"type": "node", "id": 5365710514, "lat": 39.8264143, "lon": -0.241122}, {"type": "node", "id": 5365710515, "lat": 39.8263209, "lon": -0.2411035}, {"type": "node", "id": 5365710516, "lat": 39.8262836, "lon": -0.2414223}, {"type": "node", "id": 5710334567, "lat": 39.940636, "lon": -0.1068781, "tags": {"addr:street": "Calle del Conde de Ribagorza, 19, 12540 Villareal, Castell\u00f3n", "amenity": "pharmacy", "dispensing": "yes", "healthcare": "pharmacy", "name": "Farmacia Beltr\u00e1n", "phone": "+34 964 52 24 66"}}, {"type": "node", "id": 5710334805, "lat": 39.936821, "lon": -0.1071719, "tags": {"addr:street": "Carrer Pietat, 36, 12540 Vila-real, Castell\u00f3", "amenity": "pharmacy", "dispensing": "yes", "healthcare": "pharmacy", "name": "Farmacia Arnau Flich", "phone": "+34 964 50 62 61"}}, {"type": "node", "id": 5710342705, "lat": 39.9327619, "lon": -0.1057454, "tags": {"addr:street": "Farmacia Clerigues Grau", "amenity": "pharmacy", "dispensing": "yes", "healthcare": "pharmacy", "name": "Farmacia Clerigues Grau", "phone": "+34 964 52 08 77"}}, {"type": "node", "id": 5710344132, "lat": 39.9415536, "lon": -0.094577, "tags": {"addr:street": "Carrer Germanies, 15, 12540 Vila-real, Castell\u00f3", "amenity": "pharmacy", "dispensing": "yes", "healthcare": "pharmacy", "name": "Farmacia Sylvia Vila", "phone": "+34 964 52 20 04"}}, {"type": "node", "id": 5711248351, "lat": 39.9340595, "lon": -0.1018198, "tags": {"addr:street": "Carrer Mol\u00ed, 9, 12540 Vila-real, Castell\u00f3", "amenity": "pharmacy", "dispensing": "yes", "healthcare": "pharmacy", "name": "Farmacia Ortopedia Vilanova", "phone": "+34 964 52 23 17"}}, {"type": "node", "id": 5711258361, "lat": 39.9378116, "lon": -0.1001494, "tags": {"addr:street": "Carrer Major Sant Jaume, 17, 12540 Villarreal, Castell\u00f3n", "amenity": "pharmacy", "dispensing": "yes", "healthcare": "pharmacy", "name": "Farmacia Delfina Roig Font De Mora", "phone": "+34 964 52 16 02"}}, {"type": "node", "id": 5711271888, "lat": 39.9386527, "lon": -0.1011155, "tags": {"addr:street": "Pla\u00e7a Colom, 4, 12540 Vila-real, Castell\u00f3", "amenity": "pharmacy", "dispensing": "yes", "healthcare": "pharmacy", "name": "Farmacia Ferrero", "phone": "+34 964 52 11 53"}}, {"type": "node", "id": 5711276354, "lat": 39.9391009, "lon": -0.1000212, "tags": {"addr:street": "Carrer Dr. Font, 27, 12540 Vila-real, Castell\u00f3", "amenity": "pharmacy", "dispensing": "yes", "drive_through": "yes", "healthcare": "pharmacy", "name": "Farmacia Ortopedia Vilanova Llopico", "phone": "+34 964 52 14 01"}}, {"type": "node", "id": 5711281380, "lat": 39.9378142, "lon": -0.1009939, "tags": {"addr:street": "Carrer Sant Roc, 4, 12540 Vila-real, Castell\u00f3", "amenity": "pharmacy", "dispensing": "yes", "healthcare": "pharmacy", "name": "Farmacia Centrale", "phone": "+34 964 52 03 05"}}, {"type": "node", "id": 5711286459, "lat": 39.943967, "lon": -0.1052407, "tags": {"addr:housenumber": "213", "addr:postcode": "12540", "addr:street": "Carrer Ermita", "amenity": "pharmacy", "dispensing": "yes", "healthcare": "pharmacy", "name": "Farmacia Arambul Saborit"}}, {"type": "node", "id": 5711293605, "lat": 39.9429523, "lon": -0.0992184, "tags": {"addr:street": "Carrer Joan Baptista Llorens, 70, 12540 Vila-real, Castell\u00f3", "amenity": "pharmacy", "dispensing": "yes", "healthcare": "pharmacy", "name": "Farmacia Latorre C.B. Vila-real", "phone": "+34 964 52 14 45"}}, {"type": "node", "id": 5711299399, "lat": 39.9463259, "lon": -0.0957299, "tags": {"addr:street": "Carrer Calvari, 171, (cerca Parroquia Santa Sof\u00eda), 12540 Villarreal, Castell\u00f3n", "amenity": "pharmacy", "dispensing": "yes", "healthcare": "pharmacy", "name": "Farmacia Ros-Us\u00f3", "phone": "+34 964 53 01 52"}}, {"type": "node", "id": 5711304831, "lat": 39.9436827, "lon": -0.0949768, "tags": {"addr:street": "Pla\u00e7a Corona d'Arag\u00f3, 5, 12540 Vila-real, Castell\u00f3", "amenity": "pharmacy", "dispensing": "yes", "healthcare": "pharmacy", "name": "Francisco Jos\u00e9 Ballester Mecho", "phone": "+34 964 53 58 76"}}, {"type": "node", "id": 5711309961, "lat": 39.943376, "lon": -0.0926525, "tags": {"addr:street": "Carrer Manuel Sanchis Guarner, 6, 12540 Vila-real, Castell\u00f3", "amenity": "pharmacy", "dispensing": "yes", "healthcare": "pharmacy", "name": "Ana Mar\u00eda Vilaplana Meli\u00e1", "phone": "+34 964 83 80 22"}}, {"type": "node", "id": 5711323125, "lat": 39.9337867, "lon": -0.0967, "tags": {"amenity": "pharmacy", "dispensing": "yes", "healthcare": "pharmacy"}}, {"type": "node", "id": 5711330485, "lat": 39.9396101, "lon": -0.0957018, "tags": {"addr:street": "Av. Francesc T\u00e0rrega, 39, 12540 Vila-real, Castell\u00f3", "amenity": "pharmacy", "dispensing": "yes", "healthcare": "pharmacy", "name": "Farmacia Perpi\u00f1\u00e1n", "phone": "+34 964 83 59 89"}}, {"type": "node", "id": 5711337423, "lat": 39.9449089, "lon": -0.0954293}, {"type": "node", "id": 5711337424, "lat": 39.9446891, "lon": -0.0954293}, {"type": "node", "id": 5711337425, "lat": 39.9446904, "lon": -0.0951179}, {"type": "node", "id": 5711337426, "lat": 39.9449129, "lon": -0.0951196}, {"type": "node", "id": 5788934938, "lat": 39.9625151, "lon": -0.2684977}, {"type": "node", "id": 5788934939, "lat": 39.9624525, "lon": -0.2684448}, {"type": "node", "id": 5788934940, "lat": 39.9624643, "lon": -0.2685089}, {"type": "node", "id": 5788934941, "lat": 39.9624897, "lon": -0.2685165}, {"type": "node", "id": 5788934942, "lat": 39.962449, "lon": -0.2684872}, {"type": "node", "id": 5956799488, "lat": 39.825906, "lon": -0.2379124, "tags": {"amenity": "pharmacy", "dispensing": "yes", "healthcare": "pharmacy", "name": "Farmacia Beltr\u00e1n Almela", "opening_hours": "Mo-Fr 09:00-13:30,16:30-20:00; Sa 09:30-13:30"}}, {"type": "node", "id": 6060228654, "lat": 39.9872352, "lon": -0.033929, "tags": {"amenity": "pharmacy", "dispensing": "yes", "healthcare": "pharmacy", "name": "Farmacia Benet Beltr\u00e1n", "opening_hours": "Mo-Fr 09:00-14:00; Mo-Fr 17:00-20:00; Sa 09:30 -13:30", "phone": "+34 964 22 75 38"}}, {"type": "node", "id": 6060228655, "lat": 39.986972, "lon": -0.0340499, "tags": {"amenity": "clinic", "healthcare": "clinic", "name": "CLINICA PODOL\u00d3GICA DEALBERT", "opening_hours": "Mo-Fr 09:00-14:00; Mo-Fr 16:00-20:00", "phone": "+34 964 22 71 90"}}, {"type": "node", "id": 6060247400, "lat": 39.9899471, "lon": -0.0462162, "tags": {"amenity": "hospital", "healthcare": "hospital", "name": "Hospital de D\u00eda de Salud Mental Cardenal Costa", "phone": "+34 964 253 976", "social_facility": "day_care", "website": "https://hospitalprovincial.es/es/salud-mental/hospitales-de-dia/cardenal-costa"}}, {"type": "node", "id": 6060255821, "lat": 39.9968111, "lon": -0.0358936}, {"type": "node", "id": 6244221482, "lat": 39.9679383, "lon": -0.2599292, "tags": {"addr:city": "Onda", "addr:housenumber": "42", "addr:postcode": "12200", "addr:street": "Avenida Sierra Espad\u00e1n", "amenity": "pharmacy", "dispensing": "yes", "drive_through": "no", "healthcare": "pharmacy", "name": "Pascual Bort", "opening_hours": "Mo-Fr 09:00-14:00; Mo-Fr 17:00-20:00", "phone": "+34 964 83 91 16"}}, {"type": "node", "id": 6821357776, "lat": 39.9865123, "lon": -0.0361341}, {"type": "node", "id": 6821357777, "lat": 39.9864663, "lon": -0.0359718}, {"type": "node", "id": 6821357778, "lat": 39.9864893, "lon": -0.0359557}, {"type": "node", "id": 6821357779, "lat": 39.9865362, "lon": -0.0361204}, {"type": "node", "id": 6832803061, "lat": 39.9880121, "lon": -0.0290066}, {"type": "node", "id": 6832803062, "lat": 39.9879728, "lon": -0.0288226}, {"type": "node", "id": 6832803063, "lat": 39.9881043, "lon": -0.0287872}, {"type": "node", "id": 6832803064, "lat": 39.988107, "lon": -0.0288137}, {"type": "node", "id": 6832803065, "lat": 39.9881518, "lon": -0.0288208}, {"type": "node", "id": 6832803066, "lat": 39.9881572, "lon": -0.0288474}, {"type": "node", "id": 6832803067, "lat": 39.9882534, "lon": -0.0288297}, {"type": "node", "id": 6832803068, "lat": 39.9882928, "lon": -0.0288226}, {"type": "node", "id": 6832803069, "lat": 39.9882941, "lon": -0.0288456}, {"type": "node", "id": 6832803070, "lat": 39.988309, "lon": -0.0288438}, {"type": "node", "id": 6832803071, "lat": 39.9883212, "lon": -0.0289146}, {"type": "node", "id": 6832803072, "lat": 39.9881694, "lon": -0.0289641}, {"type": "node", "id": 6832803073, "lat": 39.9881626, "lon": -0.028927}, {"type": "node", "id": 6832803074, "lat": 39.9881368, "lon": -0.0289358}, {"type": "node", "id": 6832803075, "lat": 39.9881396, "lon": -0.028973}, {"type": "node", "id": 6855696163, "lat": 39.9768164, "lon": 0.0152673, "tags": {"addr:city": "Castell\u00f3 de la Plana", "addr:housenumber": "36", "addr:postcode": "12100", "addr:street": "Passeig de Sebasti\u00e1n Elcano", "amenity": "clinic", "contact:phone": "+34 964 390 650", "emergency:phone": "+34 964 390 666", "healthcare": "clinic", "healthcare:speciality": "general", "name": "Centre Sanitari Integrat Grau", "name:ca": "Centre Sanitari Integrat Grau", "name:es": "Centro Sanitario Integrado Grau"}}, {"type": "node", "id": 6899915393, "lat": 39.9283474, "lon": -0.2030231}, {"type": "node", "id": 6899915394, "lat": 39.9283422, "lon": -0.2030659}, {"type": "node", "id": 6899915395, "lat": 39.9283053, "lon": -0.2030569}, {"type": "node", "id": 6899915396, "lat": 39.9282921, "lon": -0.2031448}, {"type": "node", "id": 6899915397, "lat": 39.9283641, "lon": -0.2031621}, {"type": "node", "id": 6899915398, "lat": 39.9283785, "lon": -0.2030855}, {"type": "node", "id": 6899915399, "lat": 39.928413, "lon": -0.203093}, {"type": "node", "id": 6899915400, "lat": 39.9283952, "lon": -0.2032086}, {"type": "node", "id": 6899915401, "lat": 39.9284838, "lon": -0.2032349}, {"type": "node", "id": 6899915402, "lat": 39.9285017, "lon": -0.2031185}, {"type": "node", "id": 6899915403, "lat": 39.9285345, "lon": -0.203126}, {"type": "node", "id": 6899915404, "lat": 39.9285109, "lon": -0.2032807}, {"type": "node", "id": 6899915405, "lat": 39.9285938, "lon": -0.2033017}, {"type": "node", "id": 6899915406, "lat": 39.9286197, "lon": -0.203138}, {"type": "node", "id": 6899915407, "lat": 39.9285599, "lon": -0.2031238}, {"type": "node", "id": 6899915408, "lat": 39.9285662, "lon": -0.2030795}, {"type": "node", "id": 6899915409, "lat": 39.9285961, "lon": -0.2030885}, {"type": "node", "id": 6899915410, "lat": 39.9286301, "lon": -0.2028775}, {"type": "node", "id": 6899915411, "lat": 39.9285633, "lon": -0.2028602}, {"type": "node", "id": 6899915412, "lat": 39.9285334, "lon": -0.2030704}, {"type": "node", "id": 6899915413, "lat": 39.9285109, "lon": -0.2030659}, {"type": "node", "id": 6899915414, "lat": 39.9285432, "lon": -0.2028542}, {"type": "node", "id": 6899915415, "lat": 39.9284568, "lon": -0.2028309}, {"type": "node", "id": 6899915416, "lat": 39.9284648, "lon": -0.2027693}, {"type": "node", "id": 6899915417, "lat": 39.9283416, "lon": -0.2027175}, {"type": "node", "id": 6899915418, "lat": 39.9282938, "lon": -0.2030096}, {"type": "node", "id": 7193549895, "lat": 39.9808052, "lon": -0.0351465, "tags": {"amenity": "pharmacy", "healthcare": "pharmacy"}}, {"type": "node", "id": 7295500561, "lat": 39.9965125, "lon": -0.0354901, "tags": {"addr:city": "Castell\u00f3 de la Plana", "addr:housenumber": "21", "addr:postcode": "12004", "addr:street": "Carrer de Rosa Maria Molas", "amenity": "pharmacy", "dispensing": "yes", "facebook": "https://www.facebook.com/alcalaginerfarmacia", "healthcare": "pharmacy", "name": "Farm\u00e0cia Alcal\u00e0 Giner", "phone": "+34 964 224 032"}}, {"type": "node", "id": 7296545146, "lat": 39.9895405, "lon": -0.0262862, "tags": {"amenity": "pharmacy", "dispensing": "yes", "healthcare": "pharmacy", "name": "Farm\u00e0cia Ros CB"}}, {"type": "node", "id": 7296596512, "lat": 39.9769865, "lon": -0.0550084, "tags": {"addr:housenumber": "75", "addr:street": "Avenida Gran V\u00eda T\u00e1rrega Monteblanco", "amenity": "pharmacy", "dispensing": "yes", "healthcare": "pharmacy", "name": "Farm\u00e0cia Franciso Carceller Mart\u00ednez"}}, {"type": "node", "id": 7296624934, "lat": 39.8375284, "lon": -0.2692955, "tags": {"addr:city": "Alfondeguilla", "addr:housenumber": "12", "addr:postcode": "12609", "addr:street": "Carrer Major", "amenity": "pharmacy", "contact:phone": "+34 964661993", "dispensing": "yes", "healthcare": "pharmacy", "name": "Farmacia Jose Ignacio Bueso Bordils"}}, {"type": "node", "id": 7595174066, "lat": 39.8197472, "lon": -0.2268001, "tags": {"addr:city": "La Vall d'Uix\u00f3", "addr:housenumber": "16", "addr:postcode": "12600", "addr:street": "Avinguda de les Corts Valencianes", "air_conditioning": "yes", "amenity": "clinic", "email": "info@clinicabarbera.es", "healthcare": "clinic", "healthcare:speciality": "plastic_surgery;dermatology;surgery;clinic", "level": "0", "name": "Cl\u00ednica Medicina Est\u00e9tica Barber\u00e1", "opening_hours": "Mo 09:30-18:00; Tu 09:15-14:00,15:30-20:30; We 09:30-13:30,15:00-20:00; Th 09:00-14:00,15:30-21:00; Fr  09:30-18:00", "operator": "Cl\u00ednica Medicina Est\u00e9tica Barber\u00e1", "operator:type": "private", "phone": "+34 616 26 27 83", "website": "https://www.clinicabarbera.net/"}}, {"type": "node", "id": 7973248946, "lat": 39.9924803, "lon": -0.03807, "tags": {"addr:city": "Castell\u00f3 de la Plana", "addr:housenumber": "4", "addr:postcode": "12004", "addr:street": "Pla\u00e7a de les Illes Columbretes", "amenity": "clinic", "healthcare": "clinic", "healthcare:speciality": "general;nurses;midwife;paediatrics", "name": "Centre de Salut Illes Columbretes", "operator": "Generalitat Valenciana", "operator:type": "public", "operator:wikidata": "Q2477285"}}, {"type": "node", "id": 8149024460, "lat": 39.9835349, "lon": -0.0467596, "tags": {"access": "private", "door": "sliding", "entrance": "service"}}, {"type": "node", "id": 8149024461, "lat": 39.9839044, "lon": -0.0478726, "tags": {"access": "delivery", "door": "hinged", "entrance": "service"}}, {"type": "node", "id": 8149024462, "lat": 39.9839268, "lon": -0.0478609}, {"type": "node", "id": 8149024463, "lat": 39.9839485, "lon": -0.0479322}, {"type": "node", "id": 8149024464, "lat": 39.9838798, "lon": -0.0478854}, {"type": "node", "id": 8149024465, "lat": 39.9841959, "lon": -0.0476368, "tags": {"access": "yes", "door": "sliding", "entrance": "yes", "wheelchair": "yes"}}, {"type": "node", "id": 8149024466, "lat": 39.9845569, "lon": -0.0472057, "tags": {"access": "private", "door": "sliding", "entrance": "service", "wheelchair": "no"}}, {"type": "node", "id": 8149024467, "lat": 39.9846257, "lon": -0.0471236, "tags": {"access": "yes", "door": "sliding", "entrance": "yes"}}, {"type": "node", "id": 8149024468, "lat": 39.9851059, "lon": -0.0464996, "tags": {"access": "yes", "door": "sliding", "entrance": "exit"}}, {"type": "node", "id": 8149024469, "lat": 39.98346, "lon": -0.0450296, "tags": {"access": "private", "door": "sliding", "entrance": "service"}}, {"type": "node", "id": 8149024470, "lat": 39.9834109, "lon": -0.0463548, "tags": {"access": "delivery", "door": "sliding", "entrance": "service"}}, {"type": "node", "id": 8149024477, "lat": 39.9850024, "lon": -0.0455043, "tags": {"access": "yes", "door": "hinged", "entrance": "main", "wheelchair": "yes"}}, {"type": "node", "id": 8149030924, "lat": 39.9840762, "lon": -0.0477797, "tags": {"access": "yes", "door": "sliding", "entrance": "yes", "wheelchair": "yes"}}, {"type": "node", "id": 8149030998, "lat": 39.9844975, "lon": -0.044902, "tags": {"access": "yes", "door": "hinged", "entrance": "yes", "wheelchair": "yes"}}, {"type": "node", "id": 8149030999, "lat": 39.9839697, "lon": -0.0449681, "tags": {"access": "yes", "door": "hinged", "entrance": "yes", "wheelchair": "yes"}}, {"type": "node", "id": 8149031000, "lat": 39.9830409, "lon": -0.0451471}, {"type": "node", "id": 8149031003, "lat": 39.9849387, "lon": -0.0450108, "tags": {"access": "customers", "door": "folding", "entrance": "yes", "wheelchair": "yes"}}, {"type": "node", "id": 8149031004, "lat": 39.9850567, "lon": -0.0460195, "tags": {"access": "private", "door": "hinged", "entrance": "service"}}, {"type": "node", "id": 8149031005, "lat": 39.985092, "lon": -0.046354, "tags": {"access": "yes", "door": "sliding", "entrance": "staircase"}}, {"type": "node", "id": 8149031013, "lat": 39.9844862, "lon": -0.0472902, "tags": {"access": "yes", "door": "sliding", "entrance": "yes", "wheelchair": "yes"}}, {"type": "node", "id": 8149031015, "lat": 39.9834497, "lon": -0.0464813, "tags": {"access": "private", "door": "hinged", "entrance": "service"}}, {"type": "node", "id": 8281297476, "lat": 39.9977646, "lon": 0.0157827}, {"type": "node", "id": 8281297477, "lat": 39.9977317, "lon": 0.0158668}, {"type": "node", "id": 8281297517, "lat": 39.9977846, "lon": 0.015902}, {"type": "node", "id": 8281297518, "lat": 39.9978175, "lon": 0.0158179}, {"type": "node", "id": 8345780750, "lat": 39.9813738, "lon": -0.0281283, "tags": {"amenity": "clinic", "healthcare": "clinic", "mobile": "+34 640131120", "name": "Cl\u00ednica Ennova", "name:ca": "Cl\u00ednica Ennova", "opening_hours": "Mo-Fr 10:30-20:00", "phone": "+34 964868582", "website": "https://www.clinicaennova.com/"}}, {"type": "node", "id": 8873385654, "lat": 39.8250879, "lon": -0.2293806, "tags": {"amenity": "pharmacy", "name": "Farmacia Aparici", "phone": "+34 964 662 111"}}, {"type": "node", "id": 8873385655, "lat": 39.7654788, "lon": -0.1593469, "tags": {"amenity": "pharmacy", "name": "Farmacia Xilxes Playa", "phone": "+34 656 551 057;+34 964 590 052"}}, {"type": "node", "id": 9309432020, "lat": 40.0511784, "lon": 0.0589272}, {"type": "node", "id": 9309432021, "lat": 40.0514356, "lon": 0.0585772}, {"type": "node", "id": 9464415134, "lat": 39.9864525, "lon": -0.0409634, "tags": {"addr:city": "Castell\u00f3 de la Plana", "addr:housenumber": "3", "addr:postcode": "12001", "addr:street": "Carrer Trullols", "amenity": "clinic", "building": "yes", "check_date": "2024-11-19", "contact:phone": "+34 964 399 500", "healthcare": "clinic", "healthcare:speciality": "radiology;diagnostic_radiology;trauma;haematology;gynaecology;surgery;dermatology;pulmonology;urology;otolaryngology;endocrinology;cardiology;dental_oral_maxillo_facial_surgery;ophthalmology", "loc_name": "La Casa Gran", "loc_name:ca": "La Casa Gran", "loc_name:es": "Casa Grande", "name": "Centre d'Especialitats Jaume I", "name:ca": "Centre d'Especialitats Jaume I", "name:es": "Centro de Especialidades de Castell\u00f3n de la Plana Jaume I", "source:name": "http://castellon.san.gva.es/centro-de-especialidades"}}, {"type": "node", "id": 9464415135, "lat": 39.9864196, "lon": -0.0409647, "tags": {"addr:city": "Castell\u00f3 de la Plana", "addr:housenumber": "3", "addr:postcode": "12001", "addr:street": "Carrer Trullols", "amenity": "clinic", "healthcare": "clinic", "healthcare:speciality": "general;pediatric;emergency", "name": "Centre de Salut 9 d'Octubre", "name:ca": "Centre de Salut 9 d'Octubre", "operator": "Generalitat Valenciana", "operator:type": "public", "operator:wikidata": "Q2477285", "operator:wikipedia": "es:Generalidad Valenciana", "phone": "+34 964 399 510"}}, {"type": "node", "id": 9468603239, "lat": 39.819521, "lon": -0.2282425, "tags": {"addr:city": "La Vall d'Uix\u00f3", "addr:housenumber": "7B", "addr:postcode": "12600", "addr:street": "Carrer de Francisco Fuertes Antonino", "amenity": "clinic", "healthcare": "clinic", "name": "Cl\u00ednica Miquel", "name:ca": "Cl\u00ednica Miquel", "operator": "UNIMAT Prevenci\u00f3n", "operator:type": "private", "website": "https://www.unimatprevencion.es/red-de-centros/page/2/"}}, {"type": "node", "id": 9537483300, "lat": 39.8915069, "lon": -0.2577796, "tags": {"addr:city": "Artana", "addr:housenumber": "2", "addr:postcode": "12527", "addr:street": "Carrer Major", "amenity": "pharmacy", "dispensing": "yes", "healthcare": "pharmacy", "name": "Farmacia Gasc\u00f3 Gil"}}, {"type": "node", "id": 9686133851, "lat": 39.9850265, "lon": -0.0457326}, {"type": "node", "id": 9686133852, "lat": 39.985039, "lon": -0.0458513}, {"type": "node", "id": 9686133853, "lat": 39.9849796, "lon": -0.0452884}, {"type": "node", "id": 9691771711, "lat": 39.9841734, "lon": -0.0476636}, {"type": "node", "id": 9868014931, "lat": 39.7279247, "lon": -0.2668043, "tags": {"amenity": "pharmacy", "dispensing": "yes", "healthcare": "pharmacy", "name": "Farmacia Benifair\u00f3", "opening_hours": "Jan-Jun: Mo-Fr 09:30-14:00,17:30-20:00; Jul,Aug: Mo-Fr 09:30-14:00; Sep-Dec: Mo-Fr 09:30-14:00,17:30-20:00; Sa,Su,PH off", "website": "https://www.farmaciabenifairo.com/"}}, {"type": "node", "id": 9915449850, "lat": 39.9790508, "lon": -0.0525825}, {"type": "node", "id": 9915449854, "lat": 39.979336, "lon": -0.0527162}, {"type": "node", "id": 9915449855, "lat": 39.9793853, "lon": -0.052231}, {"type": "node", "id": 9915449868, "lat": 39.9788049, "lon": -0.0519365}, {"type": "node", "id": 9915449869, "lat": 39.9789647, "lon": -0.0523562}, {"type": "node", "id": 9915449872, "lat": 39.9789764, "lon": -0.052387}, {"type": "node", "id": 10286747481, "lat": 39.9244807, "lon": -0.0997079}, {"type": "node", "id": 10286747482, "lat": 39.9225866, "lon": -0.096667}, {"type": "node", "id": 10286747483, "lat": 39.9240458, "lon": -0.0946363}, {"type": "node", "id": 10286747484, "lat": 39.9256431, "lon": -0.0953437}, {"type": "node", "id": 10286747485, "lat": 39.9256494, "lon": -0.095572}, {"type": "node", "id": 10286747486, "lat": 39.9256995, "lon": -0.0957156}, {"type": "node", "id": 10286747487, "lat": 39.9257792, "lon": -0.0958662}, {"type": "node", "id": 10286747488, "lat": 39.9264328, "lon": -0.0976025}, {"type": "node", "id": 10286747489, "lat": 39.9258161, "lon": -0.0981448}, {"type": "node", "id": 10286747490, "lat": 39.9259047, "lon": -0.0983111}, {"type": "node", "id": 10572768079, "lat": 39.8486401, "lon": -0.1651602}, {"type": "node", "id": 10572768080, "lat": 39.8487687, "lon": -0.1650422}, {"type": "node", "id": 10572768081, "lat": 39.8487858, "lon": -0.1650597}, {"type": "node", "id": 10572768082, "lat": 39.8488507, "lon": -0.1649991}, {"type": "node", "id": 10572768083, "lat": 39.8488397, "lon": -0.1649752}, {"type": "node", "id": 10572768084, "lat": 39.8488703, "lon": -0.1649481}, {"type": "node", "id": 10572768085, "lat": 39.8488703, "lon": -0.1647997}, {"type": "node", "id": 10572768086, "lat": 39.8486878, "lon": -0.1644776}, {"type": "node", "id": 10572768087, "lat": 39.8486058, "lon": -0.1645494}, {"type": "node", "id": 10572768088, "lat": 39.8486352, "lon": -0.1645908}, {"type": "node", "id": 10572768089, "lat": 39.8485752, "lon": -0.1646323}, {"type": "node", "id": 10572768090, "lat": 39.8486817, "lon": -0.1648396}, {"type": "node", "id": 10572768091, "lat": 39.8485409, "lon": -0.1649513}, {"type": "node", "id": 10686357575, "lat": 39.9437962, "lon": -0.0666341, "tags": {"amenity": "pharmacy", "name": "Farmacia Ortopedia Aren\u00f3s"}}, {"type": "node", "id": 10707893324, "lat": 39.970414, "lon": 0.011996, "tags": {"amenity": "clinic", "fax": "+34 964 399 381", "healthcare": "clinic", "name": "Consultori Auxiliar Grau de Castell\u00f3", "operator": "Generalitat Valenciana", "operator:type": "public", "operator:wikidata": "Q2477285", "phone": "+34 964 399 380"}}, {"type": "node", "id": 10707893328, "lat": 39.9756059, "lon": 0.0116829, "tags": {"amenity": "pharmacy", "healthcare": "pharmacy", "name": "Farmacia Guinot Corell", "phone": "+34 964 285 081"}}, {"type": "node", "id": 10713109700, "lat": 40.0413253, "lon": -0.0677352}, {"type": "node", "id": 10713109701, "lat": 40.0413425, "lon": -0.0676507}, {"type": "node", "id": 10713109702, "lat": 40.0410664, "lon": -0.0676338}, {"type": "node", "id": 10713109703, "lat": 40.0410628, "lon": -0.0677258}, {"type": "node", "id": 10713109704, "lat": 40.0411462, "lon": -0.0677249}, {"type": "node", "id": 10721831965, "lat": 40.0406214, "lon": -0.0714323, "tags": {"amenity": "pharmacy", "healthcare": "pharmacy", "opening_hours": "Mo-Fr 09:00-14:00,17:00-20:00; Sa 09:00-14:00; Su,PH off"}}, {"type": "node", "id": 10855645882, "lat": 39.968065, "lon": -0.2641918, "tags": {"addr:city": "Onda", "addr:housenumber": "46", "addr:postcode": "12200", "addr:street": "Avenida Montendre", "amenity": "pharmacy", "drive_through": "no", "healthcare": "pharmacy", "name": "Farmacia Serra Espad\u00e0"}}, {"type": "node", "id": 10855645888, "lat": 39.9634872, "lon": -0.2619948, "tags": {"addr:housenumber": "27", "addr:street": "Calle La Safona", "amenity": "clinic", "healthcare": "clinic", "healthcare:speciality": "general", "name": "CENTRO RECONOCIMIENTO M\u00c9DICO CONDUCTORES", "note": "Es un centro medico pero tambi\u00e9n renuevan el carnet de conducir. No estoy seguro como se\u00f1alarlo o que tags poner."}}, {"type": "node", "id": 10865506608, "lat": 39.817999, "lon": -0.2367036, "tags": {"amenity": "pharmacy", "healthcare": "pharmacy", "name": "Farmacia Rosa Bordils Llusa", "operator": "Rosa Bordils Llusa", "phone": "+34 964 667 500"}}, {"type": "node", "id": 10880951917, "lat": 40.0408802, "lon": 0.0567333, "tags": {"amenity": "pharmacy", "healthcare": "pharmacy", "name": "Farmacia Maria Luz Guimer\u00e1 Salom", "phone": "+34964392313", "website": "https://www.farmaciamluzguimerafmas.com/"}}, {"type": "node", "id": 10966471092, "lat": 39.8853125, "lon": -0.0841664, "tags": {"addr:city": "Borriana / Burriana", "addr:housenumber": "15", "addr:postcode": "12530", "addr:street": "Carrer del Finello", "amenity": "pharmacy", "healthcare": "pharmacy", "name": "Farmacia Bego\u00f1a Medina Badenes", "operator": "Bego\u00f1a Medina Badenes", "phone": "+34 964511424"}}, {"type": "node", "id": 11146483276, "lat": 39.8853625, "lon": -0.0771862, "tags": {"addr:city": "Borriana / Burriana", "addr:housenumber": "19", "addr:postcode": "12530", "addr:street": "Carrer de Federico Garc\u00eda Lorca", "amenity": "pharmacy", "email": "info@farmaciaterradez.com", "healthcare": "pharmacy", "name": "Farmacia Terradez", "opening_hours": "Mo-Fr 09:00-13:30,16:30-20:00", "phone": "+34 964591608", "website": "https://farmaciaterradez.com/"}}, {"type": "node", "id": 11163343296, "lat": 39.7687625, "lon": -0.2073331}, {"type": "node", "id": 11163343297, "lat": 39.7687016, "lon": -0.2073733}, {"type": "node", "id": 11163343298, "lat": 39.7686524, "lon": -0.207236}, {"type": "node", "id": 11163343299, "lat": 39.7687175, "lon": -0.2071967}, {"type": "node", "id": 11164889370, "lat": 39.7689204, "lon": -0.2070822, "tags": {"amenity": "pharmacy", "healthcare": "pharmacy", "name": "Farmacia Lda. Mercedes Mart\u00ednez Escrig"}}, {"type": "node", "id": 11171873394, "lat": 39.8921672, "lon": -0.0895935, "tags": {"addr:city": "Borriana / Burriana", "addr:housenumber": "41", "addr:postcode": "12530", "addr:street": "Cam\u00ed d'Onda", "amenity": "pharmacy", "healthcare": "pharmacy", "name": "Farmacia Mu\u00f1oz", "phone": "+34 964511235", "website": "https://farmaburriana.com/"}}, {"type": "node", "id": 11178854520, "lat": 39.8879533, "lon": -0.0887458, "tags": {"addr:city": "Borriana / Burriana", "addr:housenumber": "12", "addr:place": "Pla\u00e7a de les Monges", "addr:postcode": "12530", "amenity": "pharmacy", "healthcare": "pharmacy", "name": "Farmacia M\u00aa \u00c1ngeles Gasc\u00f3 Musoles", "phone": "964 51 03 19"}}, {"type": "node", "id": 11178860849, "lat": 39.8893549, "lon": -0.0827062, "tags": {"addr:city": "Burriana / Borriana", "addr:housenumber": "25", "addr:postcode": "12530", "addr:street": "Carrer el Barranquet", "amenity": "pharmacy", "description": "Farmacia y ortopedia", "healthcare": "pharmacy", "name": "Farmacia Lloris Gonzalez", "opening_hours": "Mo-Fr 09:00-13:30,16:30-20:00", "phone": "+34 964510922"}}, {"type": "node", "id": 11178929054, "lat": 39.8884161, "lon": -0.0828337, "tags": {"addr:city": "Borriana / Burriana", "addr:housenumber": "22", "addr:postcode": "12530", "addr:street": "Carrer de la Tanda", "amenity": "pharmacy", "healthcare": "pharmacy", "name": "Farmacia Peirats Santa Agueda", "opening_hours": "Mo-Fr 09:00-13:30,16:30-20:00", "operator": "Jose Alfonso Peirats Santa Agueda", "phone": "+34 964510027"}}, {"type": "node", "id": 11178957417, "lat": 39.8875036, "lon": -0.0914189, "tags": {"addr:city": "Borriana / Burriana", "addr:housenumber": "17", "addr:postcode": "12530", "addr:street": "Carrer del Progr\u00e9s", "amenity": "pharmacy", "healthcare": "pharmacy", "name": "Farmacia Vernia Sabater", "opening_hours": "Mo-Fr 09:00-13:30,16:30-20:00", "phone": "964 51 08 40"}}, {"type": "node", "id": 11179011833, "lat": 39.8652624, "lon": -0.072958, "tags": {"addr:city": "Borriana / Burriana", "addr:housenumber": "30", "addr:postcode": "12530", "addr:street": "Avinguda de la Mediterr\u00e0nia", "amenity": "pharmacy", "healthcare": "pharmacy", "phone": "+34 964586385"}}, {"type": "node", "id": 11229039768, "lat": 39.8856355, "lon": -0.0875751, "tags": {"addr:city": "Burriana", "addr:housenumber": "1", "addr:postcode": "12530", "addr:street": "Avinguda de Llombai", "amenity": "pharmacy", "healthcare": "pharmacy", "name": "Farmacia Ortopedia Llombai", "operator": "Beatriz Beltran Martinavarro", "phone": "+34 964833255", "website": "https://www.farmaciaortopediallombaifmas.com/"}}, {"type": "node", "id": 11229113530, "lat": 39.8854628, "lon": -0.0800941, "tags": {"addr:city": "Borriana / Burriana", "addr:housenumber": "28", "addr:postcode": "12530", "addr:street": "Carrer del Maestrat", "amenity": "pharmacy", "healthcare": "pharmacy", "name": "Farmacia Consuelo Domenech Font", "phone": "+34 964512215"}}, {"type": "node", "id": 11330828899, "lat": 39.9918637, "lon": -0.0614148, "tags": {"amenity": "clinic", "check_date": "2023-11-07", "healthcare": "clinic", "name": "Agencia Valenciana de Salut"}}, {"type": "node", "id": 11702101823, "lat": 39.7279577, "lon": -0.2606557, "tags": {"amenity": "clinic", "healthcare": "clinic", "name": "Centre de Salut de Faura", "opening_hours": "Mo-Sa 08:00-15:00", "operator": "Generalitat Valenciana", "operator:type": "public", "operator:wikidata": "Q2477285"}}, {"type": "node", "id": 11820288921, "lat": 40.0192591, "lon": -0.3151168, "tags": {"amenity": "pharmacy", "healthcare": "pharmacy"}}, {"type": "node", "id": 11966768606, "lat": 39.9580839, "lon": -0.0612454, "tags": {"amenity": "clinic", "name": "Centre de Salut Barranquet - Perpetuo Socoro"}}, {"type": "node", "id": 12053916912, "lat": 39.8320979, "lon": -0.105298, "tags": {"amenity": "pharmacy", "healthcare": "pharmacy"}}, {"type": "node", "id": 12081380322, "lat": 39.9415284, "lon": -0.0938406, "tags": {"amenity": "clinic", "healthcare": "clinic", "name": "Cl\u00ednica Medefis", "phone": "+34 964523494", "website": "https://clinicamedefis.es/"}}, {"type": "node", "id": 12081380323, "lat": 39.931244, "lon": -0.1075776, "tags": {"amenity": "clinic", "contact:mobile": "+34 667630811", "healthcare": "clinic", "name": "Cl\u00ednica Robles", "phone": "+34 964103770"}}, {"type": "node", "id": 12081380324, "lat": 39.8856657, "lon": -0.0875912, "tags": {"amenity": "clinic", "contact:email": "manebasburriana@gmail.com", "healthcare": "clinic", "name": "Centro M\u00e9dico Manebas Burriana", "phone": "+34 651449643", "website": "https://www.manebas.com/"}}, {"type": "node", "id": 12081380325, "lat": 39.8528418, "lon": -0.1575825, "tags": {"amenity": "clinic", "contact:phone": "+34 672508125", "healthcare": "clinic", "name": "Policl\u00ednica Medinul", "phone": "+34 964673105", "website": "https://www.medinul.com/nuestras-especialidades.html"}}, {"type": "node", "id": 12081470582, "lat": 39.9637062, "lon": -0.2655488, "tags": {"amenity": "clinic", "contact:mobile": "+34 663313922", "healthcare": "clinic", "name": "Centro M\u00e9dico Manebas Onda", "phone": "+34 964833043", "website": "https://www.manebas.com"}}, {"type": "node", "id": 12081470583, "lat": 39.9666876, "lon": -0.260331, "tags": {"amenity": "clinic", "contact:mobile": "+34 696895575", "healthcare": "clinic", "name": "Policl\u00ednica Prades", "phone": "+34 964772374", "website": "https://www.policlinicaprades.com/"}}, {"type": "node", "id": 12081621437, "lat": 39.8215706, "lon": -0.2268352, "tags": {"amenity": "clinic", "healthcare": "clinic", "name": "Centro M\u00e9dico Plana Baixa", "phone": "+34 623339341", "website": "https://cmplanabaixa.com/"}}, {"type": "node", "id": 12081621438, "lat": 39.8219227, "lon": -0.2273039, "tags": {"amenity": "clinic", "healthcare": "clinic", "name": "Cl\u00ednica Sanchis", "phone": "+34 964182300", "website": "https://www.clinicasanchis.com"}}, {"type": "node", "id": 12095312320, "lat": 39.726572, "lon": -0.2653051, "tags": {"amenity": "pharmacy", "healthcare": "pharmacy"}}, {"type": "node", "id": 12400161091, "lat": 39.7452113, "lon": -0.1759884, "tags": {"amenity": "pharmacy", "healthcare": "pharmacy"}}, {"type": "node", "id": 12467989807, "lat": 39.9816772, "lon": -0.0325576, "tags": {"addr:city": "Castell\u00f3 de la Plana", "addr:housenumber": "39", "addr:postcode": "12003", "addr:street": "Carrer de Ciscar / Calle Ciscar", "amenity": "clinic", "description": "Medicina est\u00e9tica", "healthcare": "clinic", "name": "Cl\u00ednica Laura Baduy"}}, {"type": "node", "id": 12773099334, "lat": 39.9650975, "lon": -0.2670823, "tags": {"amenity": "pharmacy"}}, {"type": "node", "id": 12777935992, "lat": 39.9494551, "lon": -0.3065389, "tags": {"amenity": "pharmacy"}}, {"type": "way", "id": 29192535, "nodes": [321023294, 321023297, 321023299, 321023315, 6060255821, 321023305, 1734977921, 321023294], "tags": {"addr:city": "Castell\u00f3n de la Plana", "addr:housenumber": "25", "addr:postcode": "12004", "addr:street": "Calle de Santa Mar\u00eda Rosa Molas", "amenity": "hospital", "email": "infocastellon@vithas.es", "emergency": "yes", "healthcare": "hospital", "name": "Hospital Vithas Castell\u00f3n", "old_name": "Hospital Rey Don Jaime", "operator": "Vithas Sanidad", "operator:type": "private", "phone": "+34964726000", "website": "https://vithas.es/centro/vithas-hospital-castellon/", "wikidata": "Q87761696"}}, {"type": "way", "id": 32607046, "nodes": [366669387, 366669391, 9309432021, 9309432020, 366669396, 366669401, 366669410, 366669387], "tags": {"amenity": "clinic", "emergency": "yes", "healthcare": "clinic", "healthcare:speciality": "general;emergency", "name": "Centre de Salut de Benic\u00e0ssim", "name:ca": "Centre de Salut de Benic\u00e0ssim", "name:es": "Centro de Salud de Benicasim"}}, {"type": "way", "id": 37983569, "nodes": [446129994, 446129996, 446129998, 446130000, 446130004, 446130005, 446130007, 446130001, 446129994], "tags": {"addr:city": "Borriana / Burriana", "addr:housenumber": "31", "addr:postcode": "12530", "addr:street": "Avinguda de Nules", "amenity": "clinic", "building": "yes", "healthcare": "yes", "name": "Centre de salut Borriana I", "name:ca": "Centre de Salut Borriana I"}}, {"type": "way", "id": 41085315, "nodes": [500928312, 500928314, 500928317, 500928319, 500928321, 500928322, 500928312], "tags": {"amenity": "clinic", "building": "yes", "healthcare": "clinic", "name": "Centro Comarcal de la Salud"}}, {"type": "way", "id": 41361887, "nodes": [505818582, 2646124586, 2646124585, 2646124582, 2646124584, 505818575, 2646124576, 2646124579, 2646124578, 2646124575, 505818546, 2646124577, 2646124581, 2646124583, 2646124580, 2646124587, 2646124588, 505818582], "tags": {"amenity": "clinic", "name": "Centro de salud de Borriol"}}, {"type": "way", "id": 42134250, "nodes": [8149031000, 8149024470, 8149031015, 8149024460, 8149024464, 8149024461, 8149024462, 8149024463, 8149030924, 9691771711, 8149024465, 8149031013, 8149024466, 8149024467, 524000111, 8149024468, 8149031005, 8149031004, 9686133852, 9686133851, 8149024477, 9686133853, 660531999, 660532000, 8149031003, 524000113, 8149030998, 660531996, 8149030999, 660531997, 8149024469, 524000109, 8149031000], "tags": {"amenity": "hospital", "healthcare": "hospital", "name": "Hospital Provincial de Castell\u00f3", "name:ca": "Hospital Provincial de Castell\u00f3", "name:es": "Hospital Provincial de Castell\u00f3n", "operator": "Consorci Hospitalari Provincial de Castell\u00f3", "website": "https://www.hospitalprovincial.es"}}, {"type": "way", "id": 47333763, "nodes": [602819805, 602819662, 602819667, 5788934939, 5788934942, 5788934940, 5788934941, 5788934938, 602819666, 602819805], "tags": {"amenity": "clinic", "building": "yes", "name": "Centre de Salut d'Onda", "name:ca": "Centre de Salut d'Onda", "name:es": "Centro de Salud de Onda", "operator": "Generalitat Valenciana"}}, {"type": "way", "id": 84964108, "nodes": [986097959, 986097963, 986097975, 986097942, 986097979, 1151151594, 1151150707, 1151151192, 986097959], "tags": {"amenity": "clinic", "name": "Centro de Salud Palleter", "phone": "+34 964 245400"}}, {"type": "way", "id": 132523933, "nodes": [1457521138, 1457655016, 1457655012, 1457655011, 1457655009, 1457655007, 1457521138], "tags": {"amenity": "clinic", "building": "yes", "name": "Centro de salud"}}, {"type": "way", "id": 166687005, "nodes": [1781373946, 1781373945, 1781373947, 1781373944, 1781373946], "tags": {"amenity": "clinic", "building": "yes", "designation": "Health Centre", "emergency": "yes", "name": "Centre de Salut - Almenara"}}, {"type": "way", "id": 169219603, "nodes": [1803805873, 1803805871, 1803805849, 1803805715, 1803805873], "tags": {"amenity": "clinic", "emergency": "no"}}, {"type": "way", "id": 264757699, "nodes": [2704073871, 2704073872, 2704073873, 608583568, 2704073871], "tags": {"amenity": "clinic", "building": "yes", "healthcare": "clinic", "name": "Centre de Salut Carinyena", "name:ca": "Centre de Salut Carinyena"}}, {"type": "way", "id": 396206598, "nodes": [3990004723, 3990004721, 9915449868, 9915449869, 9915449872, 9915449850, 3990004722, 9915449854, 3990004725, 9915449855, 3990004723], "tags": {"amenity": "clinic", "healthcare": "clinic", "name": "Centro Sanitario Integrado de Gran V\u00eda", "operator": "Agenvia Valenciana de Salud"}}, {"type": "way", "id": 547505033, "nodes": [5290349355, 5290349356, 5290349357, 5290349354, 5290349355], "tags": {"addr:city": "Burriana", "addr:housenumber": "58A", "addr:postcode": "12530", "addr:street": "Avenida de la Uni\u00f3n Europea", "amenity": "clinic", "building": "yes", "healthcare": "yes", "healthcare:speciality": "general;urology;gynaecology;maternity;ophthalmology;otolaryngology", "name": "Centre de Salut Borriana II", "name:ca": "Centre de Salut Borriana II", "wheelchair": "yes"}}, {"type": "way", "id": 556234544, "nodes": [5365710513, 5365710514, 5365710515, 5365710516, 5365710513], "tags": {"amenity": "clinic", "building": "yes", "healthcare": "clinic", "healthcare:speciality": "general", "name": "Centre de Salut la Vall d'Uix\u00f3 2", "name:ca": "Centre de Salut la Vall d'Uix\u00f3 2", "name:es": "Centro de salud La Vall d'Uix\u00f3 2", "operator": "Generalitat Valenciana", "operator:type": "public", "operator:wikidata": "Q2477285"}}, {"type": "way", "id": 600745072, "nodes": [5711337423, 5711337424, 5711337425, 5711337426, 5711337423], "tags": {"addr:street": "Carrer Mart\u00ed l'Hum\u00e0, 13, 12540 Vila-real, Castell\u00f3", "amenity": "clinic", "building": "yes", "healthcare": "clinic", "name": "Centro de Salud Dolores Cano Royo \"El Pilar\"", "phone": "+34 964 39 08 50"}}, {"type": "way", "id": 727910050, "nodes": [6821357777, 6821357778, 6821357779, 6821357776, 6821357777], "tags": {"amenity": "clinic", "building": "yes", "healthcare": "clinic"}}, {"type": "way", "id": 729333784, "nodes": [6832803061, 6832803062, 6832803063, 6832803064, 6832803065, 6832803066, 6832803067, 6832803068, 6832803069, 6832803070, 6832803071, 6832803072, 6832803073, 6832803074, 6832803075, 6832803061], "tags": {"amenity": "clinic", "amenity_1": "doctors", "building": "health_centre", "healthcare": "centre", "healthcare:speciality": "general;paediatrics;vaccination;blood_check", "name": "Centre de Salut Rafalafena", "operator": "Departament de Salut de Castell\u00f3", "operator:type": "public"}}, {"type": "way", "id": 736987537, "nodes": [6899915418, 6899915417, 6899915416, 6899915415, 6899915414, 6899915413, 6899915412, 6899915411, 6899915410, 6899915409, 6899915408, 6899915407, 6899915406, 6899915405, 6899915404, 6899915403, 6899915402, 6899915401, 6899915400, 6899915399, 6899915398, 6899915397, 6899915396, 6899915395, 6899915394, 6899915393, 6899915418], "tags": {"amenity": "clinic", "building": "yes", "healthcare": "clinic", "name": "Centre de Salut de Betx\u00ed", "name:ca": "Centre de Salut de Betx\u00ed"}}, {"type": "way", "id": 891003722, "nodes": [8281297476, 8281297518, 8281297517, 8281297477, 8281297476], "tags": {"amenity": "clinic", "building": "public", "name": "Centro Desplazados Marjaleria-Grao"}}, {"type": "way", "id": 1124887720, "nodes": [10286747481, 10286747482, 10286747483, 10286747484, 10286747485, 10286747486, 10286747487, 495304136, 10286747488, 10286747489, 10286747490, 10286747481], "tags": {"amenity": "hospital", "healthcare": "hospital", "name": "Hospital Universitari La Plana", "name:ca": "Hospital Universitari La Plana", "wikidata": "Q64442936"}}, {"type": "way", "id": 1134052641, "nodes": [10572768079, 10572768080, 10572768081, 10572768082, 10572768083, 10572768084, 10572768085, 10572768086, 10572768087, 10572768088, 10572768089, 10572768090, 10572768091, 10572768079], "tags": {"amenity": "clinic", "building": "yes", "healthcare": "clinic", "name": "Centre de Salut Nules"}}, {"type": "way", "id": 1151628409, "nodes": [10713109700, 10713109701, 10713109702, 10713109703, 10713109704, 10713109700], "tags": {"amenity": "pharmacy", "building": "yes", "healthcare": "pharmacy", "name": "Farmacia \u00c1ngel Garcia"}}, {"type": "way", "id": 1204472314, "nodes": [11163343296, 11163343297, 11163343298, 11163343299, 11163343296], "tags": {"amenity": "clinic", "building": "yes", "healthcare": "clinic", "name": "Consultori Auxiliar de la Llosa", "operator": "Generalitat Valenciana", "operator:type": "public"}}]}