{"version": 0.6, "generator": "Overpass API 0.7.62.5 1bd436f1", "osm3s": {"timestamp_osm_base": "2025-05-11T01:54:44Z", "copyright": "The data included in this document is from www.openstreetmap.org. The data is made available under ODbL."}, "elements": [{"type": "node", "id": 371547873, "lat": 40.4663534, "lon": 0.4671282, "tags": {"addr:city": "Vinar\u00f2s", "addr:full": "Carrer de Pablo Ruiz Picasso - Esquina Pio XII", "addr:postcode": "12500", "amenity": "pharmacy", "dispensing": "yes", "healthcare": "pharmacy", "name": "Farmacia Adell", "operator": "Manuel Adell Alegre", "phone": "+34 964 40 26 02"}}, {"type": "node", "id": 373399786, "lat": 40.4809735, "lon": 0.4826931, "tags": {"addr:city": "Vinar\u00f2s", "addr:housenumber": "24", "addr:postcode": "12500", "addr:street": "Avinguda de Francisco Jos\u00e9 Balada", "alt_name": "Farm\u00e0cia Teresa Valls", "amenity": "pharmacy", "check_date": "2024-05-21", "dispensing": "yes", "email": "info@farmaciateresavalls.com", "facebook": "https://www.facebook.com/FarmaciaTeresaValls/", "healthcare": "pharmacy", "name": "Farmacia Valls", "operator": "Mar\u00eda Teresa Valls Gombau", "phone": "+34 964 45 33 66", "website": "https://www.farmaciateresavalls.com/"}}, {"type": "node", "id": 776983094, "lat": 40.5426365, "lon": 0.4772957, "tags": {"amenity": "clinic", "name": "Centre Assist\u00e8ncia Prim\u00e0ria I Creu Roja"}}, {"type": "node", "id": 1972697999, "lat": 40.5511072, "lon": 0.2433596, "tags": {"addr:city": "Canet lo Roig", "addr:housenumber": "13", "addr:postcode": "12350", "addr:street": "Carrer de Falc\u00f3 i Blanco", "amenity": "pharmacy", "dispensing": "yes", "emergency": "no", "healthcare": "pharmacy", "name": "Farm\u00e0cia Farr\u00e9s", "name:ca": "Farm\u00e0cia Farr\u00e9s", "operator": "Mar\u00eda Rosa Farr\u00e9s Redons", "phone": "+34 964 494 187"}}, {"type": "node", "id": 2286055300, "lat": 40.4650837, "lon": 0.449592}, {"type": "node", "id": 2430779559, "lat": 40.4693028, "lon": 0.4757178, "tags": {"addr:city": "Vinar\u00f2s", "addr:housenumber": "34", "addr:postcode": "12500", "addr:street": "Pla\u00e7a de Sant Antoni", "amenity": "pharmacy", "check_date": "2024-05-24", "dispensing": "yes", "email": "info@farmaciatomasferrer.com", "facebook": "https://www.facebook.com/farmaciaferrervinaros", "healthcare": "pharmacy", "name": "Farmacia Ferrer", "operator": "Tom\u00e1s Sebasti\u00e1n Jos\u00e9 Ferrer Cabecer\u00e1n", "phone": "+34 964 45 02 16", "website": "https://www.farmaciatomasferrer.com/"}}, {"type": "node", "id": 2430781743, "lat": 40.4706002, "lon": 0.4748144, "tags": {"addr:city": "Vinar\u00f2s", "addr:housenumber": "11", "addr:postcode": "12500", "addr:street": "Pla\u00e7a Parroquial", "amenity": "pharmacy", "dispensing": "yes", "email": "info@farmaciaguimera.com", "healthcare": "pharmacy", "name": "Farmacia Guimer\u00e1", "operator": "Laura Guimer\u00e1 Querol;Javier Guimer\u00e1 Querol", "phone": "+34 964 45 20 00;+34 680 573 065", "website": "https://farmaciaguimera.com/"}}, {"type": "node", "id": 2430784741, "lat": 40.4686812, "lon": 0.4735426, "tags": {"addr:city": "Vinar\u00f2s", "addr:housenumber": "15", "addr:postcode": "12500", "addr:street": "Avinguda del Pa\u00eds Valenci\u00e0", "amenity": "pharmacy", "dispensing": "yes", "healthcare": "pharmacy", "name": "Vinar\u00f2s Farm\u00e0cia", "name:ca": "Vinar\u00f2s Farm\u00e0cia", "operator": "Margarita Mart\u00ednez Centelles", "phone": "+34 964 45 47 07"}}, {"type": "node", "id": 2430786405, "lat": 40.4683146, "lon": 0.4714555, "tags": {"addr:city": "Vinar\u00f2s", "addr:housenumber": "103", "addr:postcode": "12500", "addr:street": "Carrer de Sant Francesc", "amenity": "pharmacy", "contact:facebook": "https://www.facebook.com/farmaciaTeresaMateuBarreda/", "dispensing": "yes", "healthcare": "pharmacy", "name": "Farmacia Mateu", "operator": "Mar\u00eda Teresa Mateu Barreda", "phone": "+34 964 40 73 41"}}, {"type": "node", "id": 2430788235, "lat": 40.4703755, "lon": 0.4733435, "tags": {"addr:city": "Vinar\u00f2s", "addr:housenumber": "6", "addr:postcode": "12500", "addr:street": "Carrer de Sant Francesc", "alt_name": "Ortopedia T\u00e9cnica - Roca", "amenity": "pharmacy", "brand": "Redfarma", "dispensing": "yes", "healthcare": "pharmacy", "medical_supply": "orthopedic", "name": "Farmacia Roca", "operator": "Jes\u00fas Javier Roca Robles;David Roca Biosca", "phone": "+34 964 45 01 87"}}, {"type": "node", "id": 2430792949, "lat": 40.4748426, "lon": 0.4748051, "tags": {"addr:city": "Vinar\u00f2s", "addr:housenumber": "87", "addr:postcode": "12500", "addr:street": "Carrer del Pont", "amenity": "pharmacy", "dispensing": "yes", "healthcare": "pharmacy", "name": "Farmacia Sanz", "operator": "Mar\u00eda Luz Sanz Gim\u00e9nez", "phone": "+34 964 45 13 17"}}, {"type": "node", "id": 2430798136, "lat": 40.4731246, "lon": 0.4725009, "tags": {"addr:city": "Vinar\u00f2s", "addr:housenumber": "9", "addr:postcode": "12500", "addr:street": "Avinguda de la Llibertat", "amenity": "pharmacy", "dispensing": "yes", "email": "atorregrosa@ono.com", "healthcare": "pharmacy", "name": "Farmacia Torregrosa", "operator": "Arturo Torregrosa Hig\u00f3n", "phone": "+34 964 45 22 31", "website": "https://farmaciatorregrosa.com/"}}, {"type": "node", "id": 3094249310, "lat": 40.5424082, "lon": 0.4772875}, {"type": "node", "id": 3094249313, "lat": 40.542558, "lon": 0.4776202}, {"type": "node", "id": 3094249314, "lat": 40.5426432, "lon": 0.4772004}, {"type": "node", "id": 3094249316, "lat": 40.5426635, "lon": 0.477403}, {"type": "node", "id": 3094249317, "lat": 40.5425242, "lon": 0.4774609}, {"type": "node", "id": 3094249320, "lat": 40.542473, "lon": 0.4776409}, {"type": "node", "id": 3788278821, "lat": 40.4630727, "lon": 0.4496589}, {"type": "node", "id": 3788278824, "lat": 40.4641557, "lon": 0.4487255}, {"type": "node", "id": 3788278825, "lat": 40.4638841, "lon": 0.4492999}, {"type": "node", "id": 3788278826, "lat": 40.4634792, "lon": 0.4489271}, {"type": "node", "id": 7295565482, "lat": 40.6348234, "lon": 0.2839632, "tags": {"addr:city": "la S\u00e9nia", "addr:full": "carrer Tarragona, 27", "addr:housenumber": "27", "addr:postcode": "43560", "addr:street": "carrer Tarragona", "amenity": "pharmacy", "contact:phone": "+34 977713234", "dispensing": "yes", "name": "Farm\u00e0cia Marcoval Mart\u00ed, Marta", "name:ca": "Farm\u00e0cia Marcoval Mart\u00ed, Marta", "ref": "3621779", "source": "Generalitat de Catalunya", "source:date": "03/11/2020 08:00:00 AM +0000"}}, {"type": "node", "id": 7295574934, "lat": 40.5435447, "lon": 0.4806908, "tags": {"addr:city": "Alcanar", "addr:housenumber": "1", "addr:postcode": "43530", "addr:street": "Carrer de Felip Pedrell", "amenity": "pharmacy", "brand": "XarxaFarma", "contact:phone": "+34977732291", "dispensing": "yes", "name": "Farm\u00e0cia Delgado Gardo, Maria Pilar", "ref": "3624472", "source": "Generalitat de Catalunya", "source:date": "03/11/2020 08:00:10 AM +0000"}}, {"type": "node", "id": 7295574935, "lat": 40.5432359, "lon": 0.4818779, "tags": {"addr:city": "Alcanar", "addr:full": "avinguda Generalitat, 17", "addr:housenumber": "17", "addr:postcode": "43530", "addr:street": "Carrer de la Generalitat", "amenity": "pharmacy", "contact:phone": "+34 977730105", "dispensing": "yes", "name": "Farm\u00e0cia Jordi Delgado Boix", "name:ca": "Farm\u00e0cia Jordi Delgado Boix", "ref": "3624473", "source": "Generalitat de Catalunya", "source:date": "03/11/2020 08:00:10 AM +0000"}}, {"type": "node", "id": 7343835531, "lat": 40.6349872, "lon": 0.2816909, "tags": {"addr:city": "S\u00e9nia, la", "addr:full": "carrer Del Mig, 17", "addr:housenumber": "17", "addr:postcode": "43560", "addr:street": "Carrer del Mig", "amenity": "pharmacy", "contact:phone": "+34977713233", "dispensing": "yes", "name": "Farm\u00e0cia Mestre Abella, M. Jos\u00e9", "name:ca": "Farm\u00e0cia Mestre Abella, M. Jos\u00e9", "ref": "3624494", "source": "Generalitat de Catalunya", "source:date": "03/11/2020 08:00:00 AM +0000"}}, {"type": "node", "id": 7343835532, "lat": 40.6353439, "lon": 0.2812049, "tags": {"addr:city": "S\u00e9nia, la", "addr:full": "carrer Ramon I Cajal, 20", "addr:housenumber": "20", "addr:postcode": "43560", "addr:street": "Carrer de Ramon i Cajal", "amenity": "pharmacy", "contact:phone": "+34977714177", "dispensing": "yes", "name": "Farm\u00e0cia Escuder Monfort, Llu\u00eds", "name:ca": "Farm\u00e0cia Escuder Monfort, Llu\u00eds", "ref": "3624493", "source": "Generalitat de Catalunya", "source:date": "03/11/2020 08:00:00 AM +0000"}}, {"type": "node", "id": 7392903783, "lat": 40.4705466, "lon": 0.4700098, "tags": {"addr:city": "Vinar\u00f2s", "addr:housenumber": "120", "addr:postcode": "12500", "addr:street": "Carrer de la Mare de D\u00e9u del Pilar", "alt_name": "Farm\u00e0cia Pilar 120", "amenity": "pharmacy", "contact:facebook": "https://www.facebook.com/farmaciapilar120vinaros", "dispensing": "yes", "healthcare": "pharmacy", "name": "Farmacia Pitarch", "operator": "Humildad Pitarch Roda", "phone": "+34 964 45 64 39"}}, {"type": "node", "id": 7395180280, "lat": 40.4154319, "lon": 0.4270647, "tags": {"addr:city": "Benicarl\u00f3", "addr:housenumber": "6", "addr:postcode": "12580", "addr:street": "Avinguda de lecla", "amenity": "pharmacy", "dispensing": "yes", "healthcare": "pharmacy", "name": "Farmacia Carceller", "operator": "Amparo Carceller Garc\u00eda", "phone": "+34 964 47 11 43"}}, {"type": "node", "id": 7395243671, "lat": 40.4187384, "lon": 0.4252276, "tags": {"addr:city": "Benicarl\u00f3", "addr:housenumber": "33", "addr:postcode": "12580", "addr:street": "Carrer Sant Joan", "amenity": "pharmacy", "contact:instagram": "https://www.instagram.com/farmaciacid/", "dispensing": "yes", "email": "info@farmaciacid.com", "healthcare": "pharmacy", "name": "Farmacia Cid", "operator": "Jorge Cid Foix", "phone": "+34 964 47 07 48", "website": "https://farmaciacid.com/"}}, {"type": "node", "id": 7395257294, "lat": 40.4169407, "lon": 0.4253117, "tags": {"addr:city": "Benicarl\u00f3", "addr:housenumber": "23", "addr:postcode": "12580", "addr:street": "Carrer de Pius XII", "amenity": "pharmacy", "dispensing": "yes", "healthcare": "pharmacy", "name": "Farmacia Badenes", "operator": "Gemma Santos Badenes", "phone": "+34 964 47 07 99"}}, {"type": "node", "id": 7395288858, "lat": 40.4177744, "lon": 0.4205493, "tags": {"addr:city": "Benicarl\u00f3", "addr:housenumber": "5", "addr:postcode": "12580", "addr:street": "Avinguda de Jacinto Benavente", "amenity": "pharmacy", "dispensing": "yes", "healthcare": "pharmacy", "medical_supply": "orthopedic", "name": "Farmacia Febrer", "operator": "Mar\u00eda Teresa Febrer Domingo", "phone": "+34 964 470 102"}}, {"type": "node", "id": 7395330938, "lat": 40.4152275, "lon": 0.4295744, "tags": {"addr:city": "Benicarl\u00f3", "addr:housenumber": "45", "addr:postcode": "12580", "addr:street": "Carrer d'Hern\u00e1n Cort\u00e9s", "amenity": "pharmacy", "dispensing": "yes", "healthcare": "pharmacy", "name": "Farmacia Meseguer", "operator": "Jos\u00e9 Luis Meseguer Arbiol", "phone": "+34 964 46 22 77"}}, {"type": "node", "id": 7395401852, "lat": 40.4229579, "lon": 0.4224581, "tags": {"addr:city": "Benicarl\u00f3", "addr:housenumber": "37", "addr:postcode": "12580", "addr:street": "Carrer de Moss\u00e8n Lajunta", "amenity": "pharmacy", "dispensing": "yes", "healthcare": "pharmacy", "name": "Farmacia Sull\u00e1n", "operator": "Miriam Borillo Sull\u00e1n", "phone": "+34 964 47 11 65"}}, {"type": "node", "id": 7395484900, "lat": 40.4189837, "lon": 0.4240856, "tags": {"addr:city": "Benicarl\u00f3", "addr:housenumber": "1", "addr:postcode": "12580", "addr:street": "Carrer Major", "amenity": "pharmacy", "dispensing": "yes", "healthcare": "pharmacy", "name": "Farmacia Santos", "opening_hours": "Oct-May: Mo-Fr 09:00-13:00,16:30-20:00; Oct-May: Sa 09:00-13:30; Jun-Sep: Mo-Fr 09:00-13:30,17:00-20:30; Jun-Sep: Sa 09:00-13:30", "operator": "Francisco Santos Febrer;Blanca Santos Badenes", "phone": "+34 964 47 18 97"}}, {"type": "node", "id": 7395546083, "lat": 40.4192435, "lon": 0.4272518, "tags": {"addr:city": "Benicarl\u00f3", "addr:housenumber": "31", "addr:postcode": "12580", "addr:street": "Avinguda de Catalunya", "amenity": "pharmacy", "dispensing": "yes", "healthcare": "pharmacy", "name": "Farmacia Sastre", "operator": "Pablo Sastre Chanas", "phone": "+34 964 828 766"}}, {"type": "node", "id": 7395641573, "lat": 40.4182313, "lon": 0.428963, "tags": {"addr:city": "Benicarl\u00f3", "addr:housenumber": "47", "addr:postcode": "12580", "addr:street": "Avinguda de M\u00e9ndez N\u00fa\u00f1ez", "amenity": "pharmacy", "dispensing": "yes", "healthcare": "pharmacy", "name": "Farmacia Hern\u00e1ndez", "operator": "Alejandro Hern\u00e1ndez Pons", "phone": "+34 964 82 71 39"}}, {"type": "node", "id": 7398021090, "lat": 40.4607376, "lon": 0.3555496, "tags": {"addr:city": "C\u00e0lig", "addr:housenumber": "16", "addr:postcode": "12589", "addr:street": "Carrer de Sant Josep", "amenity": "pharmacy", "dispensing": "yes", "healthcare": "pharmacy", "name": "Farmacia Bengochea", "operator": "Mercedes Bengochea Prieto", "phone": "+34 964 49 20 09"}}, {"type": "node", "id": 7398461040, "lat": 40.5250763, "lon": 0.2898081, "tags": {"addr:city": "Traiguera", "addr:housenumber": "14", "addr:postcode": "12330", "addr:street": "Carrer de Sant Blai", "amenity": "pharmacy", "dispensing": "yes", "email": "lydiaroca@redfarma.org", "healthcare": "pharmacy", "name": "Farmacia Roca", "operator": "Lydia Roca Blasco", "phone": "+34 964495042"}}, {"type": "node", "id": 7398486786, "lat": 40.5087958, "lon": 0.3316148, "tags": {"addr:city": "Sant Jordi / San Jorge", "addr:housenumber": "22", "addr:postcode": "12320", "addr:street": "Carrer Sant Jaume", "amenity": "pharmacy", "brand": "F+", "dispensing": "yes", "email": "farmaciateresaabadfmas@gmail.com", "healthcare": "pharmacy", "name": "Farmacia Abad", "operator": "Teresa Abad Garc\u00eda", "phone": "+34 964499035", "website": "https://www.farmaciateresaabadfmas.com/"}}, {"type": "node", "id": 7398521082, "lat": 40.5126115, "lon": 0.2535471, "tags": {"addr:city": "la Jana", "addr:housenumber": "26", "addr:postcode": "12340", "addr:street": "Carrer del Mig", "amenity": "pharmacy", "dispensing": "yes", "healthcare": "pharmacy", "name": "Farmacia Cervera", "operator": "Mar\u00eda Teresa Cervera Mampel", "phone": "+34 964497104"}}, {"type": "node", "id": 7398744614, "lat": 40.6168677, "lon": 0.2205864, "tags": {"addr:city": "Rossell", "addr:housenumber": "28", "addr:postcode": "12511", "addr:street": "Carrer Castell\u00f3", "amenity": "pharmacy", "dispensing": "yes", "healthcare": "pharmacy", "name": "Farmacia Peraire", "operator": "Cristina Peraire Besalduch", "phone": "+34 977 571224"}}, {"type": "node", "id": 7398844674, "lat": 40.6066126, "lon": 0.3474877, "tags": {"addr:city": "San Rafael del R\u00edo", "addr:housenumber": "7", "addr:postcode": "12510", "addr:street": "Carrer de la Central", "amenity": "pharmacy", "dispensing": "yes", "healthcare": "pharmacy", "name": "Farmacia Isabel Mart\u00ed", "operator": "Mar\u00eda Isabel Mart\u00ed For\u00e9s", "phone": "+34 977713300"}}, {"type": "node", "id": 7399213846, "lat": 40.4549724, "lon": 0.2747631, "tags": {"addr:city": "Cervera del Maestre", "addr:housenumber": "35", "addr:postcode": "12578", "addr:street": "Carrer Doctor Ballester", "amenity": "pharmacy", "dispensing": "yes", "healthcare": "pharmacy", "name": "Farmacia Besalduch", "operator": "Mar\u00eda \u00c1ngeles Besalduch Ar\u00edn", "phone": "+34 964498321"}}, {"type": "node", "id": 10226363267, "lat": 40.4648186, "lon": 0.4501103}, {"type": "node", "id": 10226363268, "lat": 40.4645997, "lon": 0.4505032}, {"type": "node", "id": 10226363269, "lat": 40.4643194, "lon": 0.4509749}, {"type": "node", "id": 10226363270, "lat": 40.4640423, "lon": 0.4514366}, {"type": "node", "id": 10226363271, "lat": 40.4637461, "lon": 0.4509807}, {"type": "node", "id": 10226363272, "lat": 40.4634383, "lon": 0.4504641}, {"type": "node", "id": 10226363273, "lat": 40.4631718, "lon": 0.4500029}, {"type": "node", "id": 10226363274, "lat": 40.463154, "lon": 0.4497467}, {"type": "node", "id": 10921996980, "lat": 40.4150082, "lon": 0.422278}, {"type": "node", "id": 10921996983, "lat": 40.4148392, "lon": 0.4227749}, {"type": "node", "id": 10921996984, "lat": 40.4143855, "lon": 0.4225129}, {"type": "node", "id": 10921996986, "lat": 40.4145584, "lon": 0.4220441}, {"type": "node", "id": 10921996987, "lat": 40.4145856, "lon": 0.422032}, {"type": "node", "id": 12081481712, "lat": 40.4714893, "lon": 0.473134, "tags": {"amenity": "clinic", "contact:mobile": "+34 695612114", "healthcare": "clinic", "name": "Artclinic Centro M\u00e9dico", "phone": "+34 964459139", "website": "https://www.artclinic.es/"}}, {"type": "node", "id": 12081596308, "lat": 40.4180311, "lon": 0.4282458, "tags": {"amenity": "clinic", "contact:mobile": "+34 643341662", "healthcare": "clinic", "name": "Biomedic", "phone": "+34 964826778", "website": "https://blomedic.com/"}}, {"type": "node", "id": 12081611488, "lat": 40.4148526, "lon": 0.4234666, "tags": {"amenity": "clinic", "healthcare": "clinic", "name": "Centre M\u00e8dic de Benicarl\u00f3", "phone": "+34 964460470"}}, {"type": "node", "id": 12081611507, "lat": 40.41492, "lon": 0.4222266}, {"type": "node", "id": 12559463479, "lat": 40.5225384, "lon": 0.2898462, "tags": {"amenity": "clinic", "name": "Centre de Salut de Traiguera", "name:ca": "Centre de Salut de Traiguera", "operator": "Generalitat Valenciana", "operator:type": "public"}}, {"type": "node", "id": 12803869663, "lat": 40.6370513, "lon": 0.2851978, "tags": {"amenity": "clinic", "healthcare": "clinic", "name": "CAP S\u00e9nia"}}, {"type": "way", "id": 304833797, "nodes": [3094249314, 3094249310, 3094249320, 3094249313, 3094249317, 3094249316, 3094249314], "tags": {"amenity": "clinic", "name": "Centre Assist\u00e8ncia Prim\u00e0ria I Creu Roja"}}, {"type": "way", "id": 1118151354, "nodes": [2286055300, 10226363267, 10226363268, 10226363269, 10226363270, 10226363271, 10226363272, 10226363273, 10226363274, 3788278821, 3788278826, 3788278825, 3788278824, 2286055300], "tags": {"amenity": "hospital", "emergency": "yes", "healthcare": "hospital", "name": "Hospital Comarcal de Vinar\u00f2s", "name:es": "Hospital Comarcal de Vinaroz", "wikidata": "Q87761692"}}, {"type": "way", "id": 1175373843, "nodes": [10921996980, 10921996983, 10921996984, 10921996986, 10921996987, 12081611507, 10921996980], "tags": {"amenity": "clinic", "healthcare": "clinic", "name": "Centre de Salut de Benicarl\u00f3", "operator": "Generalitat Valenciana", "operator:type": "public", "operator:wikidata": "Q2477285", "phone": "+34 964477550"}}]}