{"version": 0.6, "generator": "Overpass API 0.7.62.5 1bd436f1", "osm3s": {"timestamp_osm_base": "2025-05-11T00:41:30Z", "copyright": "The data included in this document is from www.openstreetmap.org. The data is made available under ODbL."}, "elements": [{"type": "node", "id": 347404037, "lat": 40.3266104, "lon": -0.0788224, "tags": {"amenity": "doctors", "healthcare": "doctor", "name": "Consultorio m\u00e9dico", "operator": "Generalitat Valenciana", "operator:type": "public", "operator:wikidata": "Q2477285"}}, {"type": "node", "id": 348242922, "lat": 40.3085244, "lon": 0.1178526}, {"type": "node", "id": 458829806, "lat": 40.0959952, "lon": 0.1376591}, {"type": "node", "id": 563215856, "lat": 40.3082508, "lon": 0.1180019}, {"type": "node", "id": 563215858, "lat": 40.30861, "lon": 0.1181222}, {"type": "node", "id": 563215861, "lat": 40.3083364, "lon": 0.1182715}, {"type": "node", "id": 588390268, "lat": 40.07325, "lon": -0.2115578}, {"type": "node", "id": 588390374, "lat": 40.0731441, "lon": -0.2113366}, {"type": "node", "id": 588390389, "lat": 40.073588, "lon": -0.2112911}, {"type": "node", "id": 588390391, "lat": 40.073358, "lon": -0.2111671}, {"type": "node", "id": 698854925, "lat": 40.1561764, "lon": 0.044509}, {"type": "node", "id": 698854958, "lat": 40.1561605, "lon": 0.044339}, {"type": "node", "id": 698854993, "lat": 40.1560605, "lon": 0.0443881}, {"type": "node", "id": 698854996, "lat": 40.1523465, "lon": 0.157124}, {"type": "node", "id": 698855065, "lat": 40.1560589, "lon": 0.0443556}, {"type": "node", "id": 698855066, "lat": 40.1560208, "lon": 0.0445302}, {"type": "node", "id": 698855142, "lat": 40.1522484, "lon": 0.1570946}, {"type": "node", "id": 698855146, "lat": 40.1522707, "lon": 0.1569673}, {"type": "node", "id": 698855158, "lat": 40.1523688, "lon": 0.1569967}, {"type": "node", "id": 1572991045, "lat": 40.337008, "lon": -0.1653747, "tags": {"amenity": "doctors", "name": "Consultori de Culla", "operator": "Generalitat Valenciana", "operator:type": "public"}}, {"type": "node", "id": 1601574488, "lat": 40.3590718, "lon": -0.0648906, "tags": {"amenity": "doctors", "healthcare": "doctor", "name": "Consultori m\u00e8dic de Vilar de Canes", "name:ca": "Consultori m\u00e8dic de Vilar de Canes", "operator": "Generalitat Valenciana", "operator:type": "public", "operator:wikidata": "Q2477285"}}, {"type": "node", "id": 4584136688, "lat": 40.11298, "lon": -0.0525257, "tags": {"amenity": "doctors", "healthcare": "doctor", "name": "Consultori de Vilafam\u00e9s", "name:ca": "Consultori de Vilafam\u00e9s", "name:es": "Consultorio M\u00e9dico de Villafam\u00e9s"}}, {"type": "node", "id": 5354123463, "lat": 40.2691331, "lon": -0.0197086, "tags": {"amenity": "doctors", "description": "Cal demanar cita pr\u00e8via. L'atenci\u00f3 \u00e9s a partir de les 12:00.", "healthcare": "doctor", "name": "Consultori Serra d'en Galceran", "name:ca": "Consultori Serra d'en Galceran", "opening_hours:signed": "no", "operator": "Generalitat Valenciana", "operator:type": "public", "operator:wikidata": "Q2477285"}}, {"type": "node", "id": 5405430041, "lat": 40.0958869, "lon": 0.1375814}, {"type": "node", "id": 5405430042, "lat": 40.0959072, "lon": 0.1375331}, {"type": "node", "id": 5405430043, "lat": 40.095824, "lon": 0.1374734}, {"type": "node", "id": 5405430044, "lat": 40.0957312, "lon": 0.1376944}, {"type": "node", "id": 5405430045, "lat": 40.0958762, "lon": 0.1377984}, {"type": "node", "id": 5405430046, "lat": 40.0958947, "lon": 0.1377543}, {"type": "node", "id": 5405430047, "lat": 40.0959412, "lon": 0.1377877}, {"type": "node", "id": 5554443610, "lat": 40.2932185, "lon": -0.2908644, "tags": {"amenity": "doctors", "healthcare": "doctor", "name": "Consultori Auxiliar de Vistabella", "name:ca": "Consultori Auxiliar de Vistabella", "operator": "Generalitat Valenciana", "operator:type": "public", "operator:wikidata": "Q2477285"}}, {"type": "node", "id": 6214287707, "lat": 40.2098179, "lon": 0.0293954}, {"type": "node", "id": 6214287708, "lat": 40.2096768, "lon": 0.0292266}, {"type": "node", "id": 6214287723, "lat": 40.2098825, "lon": 0.0292871, "tags": {"addr:housenumber": "30", "addr:postcode": "12181", "addr:street": "Carrer de la Llibertat", "entrance": "yes"}}, {"type": "node", "id": 6214287746, "lat": 40.2096677, "lon": 0.0292427}, {"type": "node", "id": 6214287754, "lat": 40.2097751, "lon": 0.0290529}, {"type": "node", "id": 6214287784, "lat": 40.2099539, "lon": 0.0291691}, {"type": "node", "id": 6214288086, "lat": 40.2098004, "lon": 0.029008}, {"type": "node", "id": 6214288106, "lat": 40.2098286, "lon": 0.0293765}, {"type": "node", "id": 8636825269, "lat": 40.1379188, "lon": -0.2801586, "tags": {"amenity": "clinic", "name": "Centre de Salut de Llucena", "operator": "Generalitat Valenciana", "operator:type": "public", "operator:wikidata": "Q2477285"}}, {"type": "node", "id": 9429723292, "lat": 40.2914032, "lon": -0.0449866, "tags": {"amenity": "doctors", "healthcare": "doctor", "name": "Consulori dels Rossildos", "operator": "Generalitat Valenciana", "operator:type": "public", "operator:wikidata": "Q2477285"}}, {"type": "node", "id": 9849014669, "lat": 40.2764494, "lon": -0.2089024, "tags": {"amenity": "doctors", "healthcare": "doctor", "name": "Consultori de Benafigos", "name:ca": "Consultori de Benafigos", "operator": "Generalitat Valenciana", "operator:type": "public", "operator:wikidata": "Q2477285"}}, {"type": "node", "id": 9992491416, "lat": 40.1559997, "lon": 0.0445017}, {"type": "node", "id": 9992552633, "lat": 40.1559975, "lon": 0.0443884}, {"type": "node", "id": 9992552634, "lat": 40.15599, "lon": 0.044389}, {"type": "node", "id": 9992552635, "lat": 40.1559945, "lon": 0.0444924}, {"type": "node", "id": 9992552637, "lat": 40.1561298, "lon": 0.044344}, {"type": "node", "id": 10847456210, "lat": 40.2837798, "lon": -0.1125816}, {"type": "node", "id": 10847456211, "lat": 40.2837894, "lon": -0.1125008}, {"type": "node", "id": 10847456212, "lat": 40.2836817, "lon": -0.1124787}, {"type": "node", "id": 10847456213, "lat": 40.283672, "lon": -0.1125595}, {"type": "node", "id": 11017705606, "lat": 40.2149582, "lon": -0.169217}, {"type": "node", "id": 11165874432, "lat": 40.3125552, "lon": 0.0314596, "tags": {"amenity": "doctors", "name": "Consultori Serratella", "operator": "Generalitat Valenciana"}}, {"type": "node", "id": 11541197668, "lat": 40.0992018, "lon": 0.1353672, "tags": {"amenity": "clinic", "contact:email": "oropesa@diaverum.com", "healthcare": "dialysis", "healthcare:speciality": "nephrology", "name": "Centro de Di\u00e1lisis Diaverum Oropesa", "phone": "+34 964313387", "website": "https://www.diaverum.es/es/es/clinic-container/oropesa-dialysis-clinic-/"}}, {"type": "node", "id": 11541651277, "lat": 40.1051916, "lon": 0.1515455, "tags": {"amenity": "doctors", "emergency:phone": "+34 964739865", "healthcare": "doctor", "healthcare:speciality": "general", "name": "Consultori m\u00e8dic d'estiu", "operator": "Generalitat Valenciana", "operator:type": "public", "operator:wikidata": "Q2477285", "phone": "+34 964399405"}}, {"type": "node", "id": 11860478237, "lat": 40.0734991, "lon": -0.2110987}, {"type": "node", "id": 11860478238, "lat": 40.0733731, "lon": -0.2111999}, {"type": "node", "id": 11878378320, "lat": 40.1571796, "lon": -0.1625035, "tags": {"amenity": "doctors", "healthcare": "doctor", "healthcare:speciality": "general", "name": "Consultori Auxiliar de les Useres", "operator": "Generalitat Valenciana", "operator:type": "public"}}, {"type": "node", "id": 12015702002, "lat": 40.2148975, "lon": -0.1689058}, {"type": "node", "id": 12015702003, "lat": 40.2148633, "lon": -0.1688942}, {"type": "node", "id": 12015702004, "lat": 40.214737, "lon": -0.1689917}, {"type": "node", "id": 12015702005, "lat": 40.2147288, "lon": -0.1690373}, {"type": "node", "id": 12015702006, "lat": 40.2148545, "lon": -0.1693153}, {"type": "node", "id": 12036713502, "lat": 40.2274225, "lon": -0.0778062, "tags": {"amenity": "doctors", "healthcare": "doctor", "healthcare:speciality": "general", "name": "Consultori dels Ivarsos", "opening_hours": "Mo,Fr 09:00-10:30;Tu 09:00-11:00;We,Th 12:30-14:00; Sa,Su,PH off", "operator": "Generalitat Valenciana", "operator:type": "public"}}, {"type": "node", "id": 12081589685, "lat": 40.0909185, "lon": 0.1370402, "tags": {"amenity": "clinic", "healthcare": "clinic", "name": "Cl\u00ednica Oropesa", "phone": "+34 964313130"}}, {"type": "node", "id": 12205675288, "lat": 40.2448108, "lon": -0.286711, "tags": {"amenity": "doctors", "healthcare": "doctor", "name": "Consultori de Xodos", "operator": "Generalitat Valenciana", "operator:type": "public"}}, {"type": "node", "id": 12475584198, "lat": 40.3585713, "lon": 0.0150468, "tags": {"amenity": "clinic", "description": "CENTRO ESPEC\u00cdFICO PARA PERSONAS CON ENFERMEDAD MENTAL CR\u00d3NICA DEL ALBOC\u00c0SSER-CEEM IVASS", "healthcare": "clinic", "name": "CEEM Alboc\u00e0sser", "operator": "Instituto Valenciano de Servicios Sociales IVASS", "website": "https://www.gva.es/es/inicio/atencion_ciudadano/buscadores/departamentos/detalle_departamentos?id_dept=19854"}}, {"type": "way", "id": 44326674, "nodes": [348242922, 563215858, 563215861, 563215856, 348242922], "tags": {"amenity": "clinic", "name": "Centro de salud de Cuevas de Vinrom\u00e1"}}, {"type": "way", "id": 46150046, "nodes": [588390374, 588390268, 588390389, 11860478237, 11860478238, 588390391, 588390374], "tags": {"amenity": "clinic", "building": "clinic", "healthcare": "clinic", "name": "Centre de Salut de l'Alcora", "name:ca": "Centre de Salut de l'Alcora", "name:es": "Centro de Salud de l'Alcora", "operator": "Generalitat Valenciana", "operator:type": "public", "operator:wikidata": "Q2477285", "phone": "+34 964739940"}}, {"type": "way", "id": 55606619, "nodes": [698854993, 698855065, 9992552637, 698854958, 698854925, 698855066, 9992491416, 9992552635, 9992552634, 9992552633, 698854993], "tags": {"addr:city": "Cabanes", "addr:housenumber": "11", "addr:postcode": "12180", "addr:street": "Carrer Hospital", "amenity": "clinic", "building": "yes", "healthcare": "clinic", "name": "Centro de Salud de Cabanes"}}, {"type": "way", "id": 55606622, "nodes": [698855158, 698854996, 698855142, 698855146, 698855158], "tags": {"amenity": "clinic", "name": "Centro de Salud de Venta de San Antonio"}}, {"type": "way", "id": 560510280, "nodes": [458829806, 5405430041, 5405430042, 5405430043, 5405430044, 5405430045, 5405430046, 5405430047, 458829806], "tags": {"amenity": "clinic", "building": "yes", "emergency:phone": "+34 964739865", "healthcare": "clinic", "name": "Centre de Salut d'Orpesa", "name:ca": "Centre de Salut d'Orpesa", "name:es": "Centro de Salud de Oropesa del Mar", "operator": "Generalitat Valenciana", "operator:type": "public", "operator:wikidata": "Q2477285", "phone": "+34 964739860"}}, {"type": "way", "id": 663918962, "nodes": [6214287746, 6214287708, 6214287754, 6214288086, 6214287784, 6214287723, 6214288106, 6214287707, 6214287746], "tags": {"addr:housenumber": "30", "addr:postcode": "12181", "addr:street": "Carrer de la Llibertat", "amenity": "clinic", "name": "Centre de Salut de Benlloc", "name:ca": "Centre de Salut de Benlloc", "name:es": "Centro de Salud de Benlloc"}}, {"type": "way", "id": 1166244044, "nodes": [10847456210, 10847456211, 10847456212, 10847456213, 10847456210], "tags": {"amenity": "doctors", "building": "public", "healthcare": "doctor", "name": "Consultori Pla de les Vinyes", "operator": "Generalitat Valenciana", "operator:type": "public", "operator:wikidata": "Q2477285"}}, {"type": "way", "id": 1296723842, "nodes": [11017705606, 12015702002, 12015702003, 12015702004, 12015702005, 12015702006, 11017705606], "tags": {"amenity": "clinic", "building": "hospital", "healthcare": "clinic", "name": "Centre de Salut d'Atzeneta del Maestrat", "operator": "Generalitat Valenciana", "operator:type": "public", "operator:wikidata": "Q2477285"}}]}