{"version": 0.6, "generator": "Overpass API 0.7.62.5 1bd436f1", "osm3s": {"timestamp_osm_base": "2025-05-11T01:54:44Z", "copyright": "The data included in this document is from www.openstreetmap.org. The data is made available under ODbL."}, "elements": [{"type": "node", "id": 759885008, "lat": 40.2442348, "lon": 0.2763502, "tags": {"addr:city": "Alcal\u00e0 de Xivert", "addr:housenumber": "22", "addr:postcode": "12579", "addr:street": "Carrer del Cam\u00ed de l'Atall", "amenity": "pharmacy", "dispensing": "yes", "email": "info@farmaciaalcocebre.es", "healthcare": "pharmacy", "name": "Farmacia Alcocebre", "opening_hours": "Mo-Fr 09:00-14:00,16:30-20:30; Sa 09:00-14:00", "operator": "Maria Encarnaci\u00f3n Jim\u00e9nez Sillero", "phone": "+34 964 414141", "website": "https://farmaciaalcocebre.es/", "wheelchair": "yes"}}, {"type": "node", "id": 974676319, "lat": 40.3054298, "lon": 0.2222694, "tags": {"amenity": "pharmacy", "name": "Carolina Leon", "operator": "San Fernando 9"}}, {"type": "node", "id": 2314901135, "lat": 40.3040546, "lon": 0.2240962, "tags": {"addr:city": "Alcal\u00e0 de Xivert", "addr:housenumber": "3", "addr:postcode": "12570", "addr:street": "Carrer de Joan Barcel\u00f3", "amenity": "pharmacy", "dispensing": "yes", "healthcare": "pharmacy", "name": "Farmacia Ezequiel Tortajada"}}, {"type": "node", "id": 2314901139, "lat": 40.3046246, "lon": 0.2240908, "tags": {"amenity": "pharmacy"}}, {"type": "node", "id": 2314902380, "lat": 40.3031273, "lon": 0.2222991, "tags": {"amenity": "clinic", "emergency": "yes", "name": "Centre de Salut", "name:ca": "Centre de Salut"}}, {"type": "node", "id": 2901485321, "lat": 40.2450157, "lon": 0.2764853}, {"type": "node", "id": 2901485322, "lat": 40.2450852, "lon": 0.276434}, {"type": "node", "id": 2901485323, "lat": 40.2449587, "lon": 0.2761631}, {"type": "node", "id": 2901485324, "lat": 40.2448856, "lon": 0.2762028}, {"type": "node", "id": 4005606819, "lat": 40.3832909, "lon": 0.4083937, "tags": {"addr:city": "Pen\u00edscola / Pe\u00f1\u00edscola", "addr:housenumber": "151", "addr:postcode": "12598", "addr:street": "Avinguda de Val\u00e8ncia", "addr:unit": "6", "amenity": "pharmacy", "dispensing": "yes", "healthcare": "pharmacy", "name": "Farmacia Castell", "operator": "Yolanda Castell Ferreres", "phone": "+34 964480269"}}, {"type": "node", "id": 4329612416, "lat": 40.2189304, "lon": 0.194724, "tags": {"amenity": "clinic", "healthcare": "clinic", "name": "Centre de Salut de Torreblanca", "name:ca": "Centre de Salut de Torreblanca", "name:es": "Centro de Salud de Torreblanca", "operator": "Generalitat Valenciana", "operator:type": "public", "operator:wikidata": "Q2477285", "phone": "+34964421440"}}, {"type": "node", "id": 4562338937, "lat": 40.3609233, "lon": 0.4015334}, {"type": "node", "id": 4562338938, "lat": 40.3608113, "lon": 0.4019741}, {"type": "node", "id": 4562338939, "lat": 40.3607322, "lon": 0.4019392}, {"type": "node", "id": 4562338940, "lat": 40.3607657, "lon": 0.4017959}, {"type": "node", "id": 4562338941, "lat": 40.360726, "lon": 0.4017779}, {"type": "node", "id": 4562338942, "lat": 40.3606599, "lon": 0.4020319}, {"type": "node", "id": 4562338943, "lat": 40.3605674, "lon": 0.4019933}, {"type": "node", "id": 4562338944, "lat": 40.3606508, "lon": 0.4016557}, {"type": "node", "id": 4562338945, "lat": 40.3607743, "lon": 0.4017502}, {"type": "node", "id": 4562338946, "lat": 40.3608375, "lon": 0.4015016}, {"type": "node", "id": 5039444322, "lat": 40.3600094, "lon": 0.4030356, "tags": {"addr:city": "Pen\u00edscola / Pe\u00f1\u00edscola", "addr:housenumber": "26", "addr:postcode": "12598", "addr:street": "Avinguda de la Mar", "amenity": "pharmacy", "healthcare": "pharmacy", "name": "Farmacia Salvador", "name:ca": "Farm\u00e0cia Salvador", "name:en": "Pharmacy Salvador", "name:es": "Farmacia Salvador", "operator": "Ana Concepci\u00f3n Salvador Bayarri", "phone": "+34 964480053"}}, {"type": "node", "id": 5322654372, "lat": 40.2449913, "lon": 0.2764322}, {"type": "node", "id": 5368490786, "lat": 40.3593813, "lon": 0.3977906, "tags": {"addr:city": "Pen\u00edscola / Pe\u00f1\u00edscola", "addr:housenumber": "1", "addr:postcode": "12598", "addr:street": "Carrer de la Cova", "amenity": "pharmacy", "dispensing": "yes", "healthcare": "pharmacy", "name": "Farmacia Pitarch", "operator": "Mar\u00eda del Carmen Pitarch P\u00e9rez", "phone": "+34 964480657"}}, {"type": "node", "id": 5368490787, "lat": 40.3628856, "lon": 0.4020179, "tags": {"addr:city": "Pen\u00edscola / Pe\u00f1\u00edscola", "addr:housenumber": "4", "addr:postcode": "12598", "addr:street": "Avenida del Papa Luna", "amenity": "pharmacy", "contact:phone": "+34 964 48 98 11", "dispensing": "yes", "healthcare": "pharmacy", "name": "Farmacia Sales", "operator": "Mar\u00eda Jos\u00e9 Sales Escrig"}}, {"type": "node", "id": 6894081450, "lat": 40.3607358, "lon": 0.4017351}, {"type": "node", "id": 6894081451, "lat": 40.3607473, "lon": 0.4016965}, {"type": "node", "id": 7295355023, "lat": 40.2528673, "lon": 0.2844308, "tags": {"addr:city": "Alcal\u00e0 de Xivert", "addr:housenumber": "3", "addr:postcode": "12579", "addr:street": "Avenida de les Fonts", "amenity": "pharmacy", "dispensing": "yes", "healthcare": "pharmacy", "name": "Farmacia Sara Roig Segarra"}}, {"type": "node", "id": 7295355024, "lat": 40.3046917, "lon": 0.2245785, "tags": {"addr:city": "Alcal\u00e0 de Xivert", "addr:housenumber": "4", "addr:postcode": "12570", "addr:street": "Carrer dels Desamparats", "amenity": "pharmacy", "dispensing": "yes", "healthcare": "pharmacy", "operator": "Carolina Le\u00f3n Due\u00f1as"}}, {"type": "node", "id": 7395439759, "lat": 40.4111653, "lon": 0.4267268, "tags": {"addr:city": "Benicarl\u00f3", "addr:housenumber": "18", "addr:postcode": "12580", "addr:street": "Avinguda del Papa Luna", "amenity": "pharmacy", "dispensing": "yes", "healthcare": "pharmacy", "name": "Farm\u00e0cia San Feliu", "operator": "Pilar San Feliu Gilabert", "phone": "+34 964 46 09 80"}}, {"type": "node", "id": 7398355257, "lat": 40.355458, "lon": 0.3016795, "tags": {"addr:city": "Santa Magdalena de Pulpis", "addr:housenumber": "27", "addr:postcode": "12597", "addr:street": "Carrer d'Alcal\u00e0", "amenity": "pharmacy", "dispensing": "yes", "healthcare": "pharmacy", "name": "Farmacia Ramos", "operator": "Carmen Ramos Granell", "phone": "+34 964415057"}}, {"type": "node", "id": 12029474927, "lat": 40.2205035, "lon": 0.1955856, "tags": {"amenity": "pharmacy", "healthcare": "pharmacy", "name": "Eduardo Leuba Dom\u00e9nech"}}, {"type": "node", "id": 12081596212, "lat": 40.3606142, "lon": 0.4020128, "tags": {"emergency": "emergency_ward_entrance", "entrance": "yes", "name": "Urg\u00e8ncies"}}, {"type": "node", "id": 12452962430, "lat": 40.2450219, "lon": 0.2762986, "tags": {"entrance": "yes"}}, {"type": "way", "id": 286469822, "nodes": [2901485321, 2901485322, 12452962430, 2901485323, 2901485324, 5322654372, 2901485321], "tags": {"amenity": "clinic", "building": "yes", "check_date": "2024-08-19", "healthcare": "clinic", "name": "Centro de Salud Alcossebre", "opening_hours": "24/7", "website": "https://maps.app.goo.gl/YUPMai93ckXSEY288"}}, {"type": "way", "id": 460607457, "nodes": [4562338937, 4562338938, 4562338939, 4562338940, 4562338941, 4562338942, 12081596212, 4562338943, 4562338944, 6894081451, 6894081450, 4562338945, 4562338946, 4562338937], "tags": {"addr:city": "Pen\u00edscola / Pe\u00f1\u00edscola", "addr:postcode": "12598", "addr:street": "Calle Ullal del Estany", "amenity": "clinic", "building": "yes", "emergency": "yes", "healthcare": "clinic", "name": "Centre de Salut de Pen\u00edscola", "name:ca": "Centre de Salut de Pen\u00edscola", "name:es": "Centro de Salud de Pe\u00f1\u00edscola", "operator": "Generalitat Valenciana", "operator:type": "public", "operator:wikidata": "Q2477285", "phone": "+34 964468520"}}]}